id,buzzword,car,city,creditcard,app_version,country,lat,lon,title
1,Visionary,Ford,Cleveland,jcb,3.9.2,United States,41.451118,-81.6309078,Clinical Specialist
2,time-frame,Buick,Xai-Xai,switch,0.80,Mozambique,-25.060476,33.6958809,Help Desk Operator
3,Enhanced,Mercedes-Benz,Wucun,mastercard,1.7,China,30.592849,114.305539,VP Product Management
4,projection,Toyota,Gorbunki,diners-club-enroute,1.6.9,Russia,59.8095749,29.9755395,Nurse Practicioner
5,object-oriented,Porsche,Saint-Dizier,visa,4.56,France,48.65639,4.912419,Sales Representative
6,Exclusive,Bentley,Trondheim,mastercard,9.6,Norway,63.4107694,10.3996452,Information Systems Manager
7,adapter,Mitsubishi,Seaton,jcb,0.5.7,United Kingdom,52.574095,-0.672296,Actuary
8,4th generation,Volvo,Lidingö,mastercard,3.3,Sweden,59.37407,18.1203419,VP Marketing
9,tertiary,Audi,Rumboci,jcb,4.2.4,Bosnia and Herzegovina,43.8313297,17.503469,Engineer III
10,neutral,Hyundai,Nikki,visa-electron,9.7,Benin,9.936763,3.2131232,VP Marketing
11,contingency,Pontiac,Macapá,mastercard,3.3,Brazil,0.0208039,-51.0678473,Administrative Officer
12,Expanded,Buick,Camacha,instapayment,0.2.2,Portugal,32.679852,-16.8502879,Senior Financial Analyst
13,extranet,Mitsubishi,Barili,jcb,0.46,Philippines,10.122667,123.540401,Project Manager
14,multi-state,Jeep,Houxixi,jcb,4.8,China,23.753512,117.128562,Accountant IV
15,Switchable,Maserati,Lianfa,jcb,6.95,China,32.5483419,120.4520149,Human Resources Assistant IV
16,24/7,Ram,Gazimurskiy Zavod,mastercard,4.2,Russia,51.55352,118.3446,Environmental Specialist
17,uniform,Land Rover,La Palma,jcb,0.50,Panama,8.2853585,-78.1792434,Senior Quality Engineer
18,Function-based,Audi,Kefar Shemaryahu,jcb,1.2,Israel,32.187123,34.823124,Dental Hygienist
19,exuding,Nissan,Wenchun,visa-electron,4.2.1,China,44.439233,129.500041,Information Systems Manager
20,concept,Ford,Dualing,diners-club-enroute,9.88,Philippines,7.1220009,124.5600318,Actuary
21,Diverse,Chevrolet,Can-asujan,instapayment,4.1,Philippines,10.1253323,123.6666432,Paralegal
22,solution,GMC,Cuyotenango,jcb,0.16,Guatemala,14.540627,-91.570932,Health Coach III
23,software,Land Rover,Eystur,jcb,3.22,Faroe Islands,62.20907,-6.75247,Analog Circuit Design manager
24,moderator,Mazda,Puerta de Corral Quemado,mastercard,0.33,Argentina,-34.6255137,-58.4322185,Physical Therapy Assistant
25,Stand-alone,Dodge,Plandirejo,jcb,0.55,Indonesia,-8.2795949,112.0327329,Dental Hygienist
26,Upgradable,BMW,Xiangyun,diners-club-carte-blanche,1.89,China,25.48385,100.550945,Cost Accountant
27,asynchronous,Volkswagen,Tumauini,jcb,3.2,Philippines,17.263531,121.834345,Executive Secretary
28,zero defect,Volkswagen,Akim Swedru,jcb,9.4.5,Ghana,5.8925146,-1.0155385,Geological Engineer
29,object-oriented,Hyundai,Paraćin,jcb,6.5,Serbia,43.858616,21.403911,Executive Secretary
30,contingency,Plymouth,Lahat,jcb,7.99,Indonesia,-3.8008893,103.3587288,Clinical Specialist
31,hardware,Mercedes-Benz,Santa Quitéria do Maranhão,jcb,2.5,Brazil,-3.2826576,-42.941698,Sales Associate
32,interactive,Nissan,Morales,diners-club-carte-blanche,1.08,Colombia,8.27533,-73.868176,Help Desk Technician
33,secondary,Toyota,Zaliznychne,jcb,8.9.8,Ukraine,47.6479788,36.164764,Human Resources Assistant I
34,User-centric,Mazda,Dobroměřice,switch,7.3,Czech Republic,50.3700968,13.794744,Food Chemist
35,knowledge user,Mitsubishi,Stara Błotnica,jcb,0.22,Poland,51.5429846,21.0004876,Product Engineer
36,context-sensitive,Volvo,Mysove,americanexpress,8.5,Ukraine,45.4451601,35.8363269,Paralegal
37,Front-line,Lotus,Luoping,visa-electron,4.9,China,24.884626,104.308675,Cost Accountant
38,Optimized,Chevrolet,Ödeshög,jcb,4.3,Sweden,58.1484742,14.7352235,Electrical Engineer
39,background,Ford,Guanyinsi,instapayment,0.5.1,China,33.083093,120.185095,Social Worker
40,pricing structure,Mazda,Fortios,jcb,0.57,Portugal,39.3195065,-7.4906959,VP Product Management
41,even-keeled,Honda,Williamsfield,laser,6.59,Jamaica,18.0651384,-77.4658948,Budget/Accounting Analyst III
42,Ameliorated,Volkswagen,Chadian,mastercard,0.4.7,China,30.694308,104.012972,Legal Assistant
43,bifurcated,Ford,Cannes,jcb,9.2,France,43.5418913,7.0362389,Professor
44,hierarchy,Kia,Tegarenkrajan,jcb,0.32,Indonesia,-8.0244,111.6441,Mechanical Systems Engineer
45,exuding,Mazda,Barda,jcb,2.9.5,Azerbaijan,40.3706555,47.1378909,Payment Adjustment Coordinator
46,multi-tasking,Honda,Zhongben,jcb,0.3.2,China,24.983953,101.527027,Human Resources Manager
47,demand-driven,Dodge,Modot,jcb,1.84,Mongolia,47.7406999,109.032501,Software Test Engineer I
48,collaboration,Nissan,Artybash,americanexpress,0.1.6,Russia,51.791159,87.2508267,Research Nurse
49,Phased,Buick,Doksy,americanexpress,0.7.0,Czech Republic,50.5658445,14.6542767,Editor
50,Multi-lateral,Toyota,Oslo,switch,0.61,Norway,59.9152119,10.6341605,Senior Financial Analyst
51,Seamless,Subaru,Benito Juarez,maestro,6.2.5,Mexico,19.4102526,-99.0073673,Statistician III
52,Balanced,Buick,Sihai,jcb,0.8.8,China,39.6288756,-8.6708785,Social Worker
53,local,Mitsubishi,Ōhara,maestro,0.6.5,Japan,35.6704666,139.6596071,Database Administrator IV
54,flexibility,Ford,Sahavato,mastercard,1.2,Madagascar,-20.6,48.33333,Health Coach IV
55,fresh-thinking,Suzuki,Minas de Oro,mastercard,7.52,Honduras,14.7980871,-87.3388767,Health Coach II
56,alliance,Audi,Mamanguape,jcb,0.68,Brazil,-6.6835129,-35.148879,Assistant Manager
57,contextually-based,Ford,Al Madān,jcb,8.2.9,Yemen,16.22413,43.64383,Professor
58,User-centric,Acura,Douala,jcb,0.27,Cameroon,4.0510564,9.7678687,Environmental Tech
59,leverage,BMW,Lela,diners-club-carte-blanche,5.0.9,Indonesia,-8.7377882,122.2171695,Automation Specialist IV
60,infrastructure,Mitsubishi,Cikuya,jcb,7.9,Indonesia,-7.633333,108.366667,Data Coordiator
61,Up-sized,Hyundai,Xiaogang,mastercard,8.04,China,31.070643,113.943274,Dental Hygienist
62,content-based,BMW,L’govskiy,laser,0.35,Russia,51.6553959,35.2572553,Structural Analysis Engineer
63,Integrated,Audi,Jinzipai,jcb,8.92,China,29.530868,116.531035,General Manager
64,foreground,Land Rover,Almeria,americanexpress,0.7.2,Spain,36.8414494,-2.4567059,VP Sales
65,Reduced,Maserati,Reforma,diners-club-enroute,5.9.6,Mexico,17.8579334,-93.1548091,Food Chemist
66,scalable,Maybach,Battung,mastercard,2.05,Philippines,16.7551121,121.7483586,Research Assistant IV
67,implementation,Bentley,Milán,mastercard,1.52,Colombia,1.33546,-75.51081,Civil Engineer
68,Open-architected,GMC,Tchaourou,visa-electron,0.7.1,Benin,8.8879709,2.5941239,Help Desk Technician
69,heuristic,Infiniti,Dzüünkharaa,china-unionpay,7.3.9,Mongolia,48.63333,106.73333,Paralegal
70,middleware,Ford,Qiaoshi,jcb,7.9,China,26.693697,115.313327,VP Product Management
71,Team-oriented,Cadillac,Guarapari,jcb,0.80,Brazil,-20.6741197,-40.4997382,Assistant Media Planner
72,infrastructure,Dodge,Lille,bankcard,3.9,France,50.6091631,3.2344605,Recruiting Manager
73,secured line,Audi,Tomé,jcb,0.3.1,Chile,-36.6131562,-72.9588593,Systems Administrator IV
74,complexity,Audi,Mapou,jcb,1.16,Mauritius,-20.0722773,57.6184076,Executive Secretary
75,asynchronous,Lexus,Itsandzéni,maestro,8.41,Comoros,-11.4749128,43.394005,Accounting Assistant I
76,Streamlined,Cadillac,Tutul,bankcard,0.1.0,Indonesia,-8.2831649,113.5103504,Help Desk Technician
77,Integrated,Volvo,Huili Chengguanzhen,visa-electron,0.7.2,China,26.662155,102.242653,Quality Control Specialist
78,motivating,Chevrolet,Mekarsari,jcb,0.55,Indonesia,-8.3765619,115.1918802,Executive Secretary
79,hierarchy,Lincoln,Mahaddayweyne,switch,1.09,Somalia,2.9716241,45.5334515,Operator
80,framework,Pontiac,Adtugan,jcb,7.03,Philippines,7.81194,124.85444,Programmer Analyst III
81,methodical,Honda,Ierápetra,diners-club-enroute,0.25,Greece,35.0118955,25.7407452,GIS Technical Architect
82,open architecture,Subaru,Kafyr-Kumukh,jcb,1.7.5,Russia,42.854367,47.188097,Financial Analyst
83,client-server,Ferrari,Kumbo,mastercard,4.28,Cameroon,6.2244851,10.6759772,Speech Pathologist
84,Organized,Saturn,Anyar,instapayment,6.64,Indonesia,-6.0924606,105.9112424,Senior Financial Analyst
85,groupware,Lexus,Cambita Garabitos,jcb,4.7,Dominican Republic,18.455503,-70.202889,Nuclear Power Engineer
86,Extended,Plymouth,Vilque Chico,switch,5.58,Peru,-15.2159658,-69.6892254,General Manager
87,application,Mitsubishi,Osasco,jcb,0.3.1,Brazil,-23.534948,-46.7737972,Assistant Media Planner
88,Up-sized,BMW,Kula,mastercard,5.3,Bulgaria,43.8564397,22.5188282,Quality Engineer
89,solution-oriented,Porsche,Wschowa,jcb,0.69,Poland,51.8071084,16.3164767,Sales Representative
90,strategy,Mitsubishi,Tocoa,maestro,0.14,Honduras,15.6576354,-85.9968479,Internal Auditor
91,tertiary,Ford,Shixi,jcb,5.6,China,28.438851,120.564983,Biostatistician I
92,local,Dodge,Abreus,jcb,1.0.2,Cuba,22.2795961,-80.5716199,VP Sales
93,high-level,Chevrolet,Rio das Ostras,maestro,0.7.7,Brazil,-22.4206096,-41.8625084,Quality Engineer
94,instruction set,Chevrolet,Sandaohezi,switch,4.02,China,44.335532,85.625121,Assistant Manager
95,Front-line,Audi,Mingyu,jcb,7.99,China,30.715704,104.02753,Account Coordinator
96,Cross-platform,Buick,Port-Vila,china-unionpay,8.4,Vanuatu,-17.7332512,168.3273245,Marketing Manager
97,infrastructure,Mazda,Scarborough,jcb,7.92,Trinidad and Tobago,11.1869803,-60.7301511,Account Executive
98,radical,Ram,Tan-Tan,china-unionpay,3.9.0,Morocco,28.4380408,-11.0987374,Payment Adjustment Coordinator
99,system-worthy,MINI,Portela,bankcard,0.16,Portugal,40.2553096,-8.5929199,Paralegal
100,Down-sized,Cadillac,Corral de Bustos,jcb,8.3.9,Argentina,-34.7415815,-58.4614889,Librarian
101,Object-based,Kia,Siayan,bankcard,3.2.0,Philippines,8.2608053,123.0748243,Office Assistant I
102,multi-state,Toyota,Ortega,jcb,6.5.6,Colombia,3.8366437,-75.2245693,Operator
103,service-desk,Dodge,Rivadavia,maestro,0.99,Argentina,-34.610303,-58.410092,Research Assistant III
104,multi-state,Pontiac,Santa Teresa,mastercard,0.6.1,Philippines,14.5999366,121.012518,Food Chemist
105,full-range,GMC,Lac-Brome,china-unionpay,4.29,Canada,45.21678,-72.51581,Structural Engineer
106,archive,Mazda,Ashikaga,jcb,2.6.0,Japan,36.2761885,139.5356365,Marketing Manager
107,optimal,Mercury,North Cowichan,diners-club-carte-blanche,4.1,Canada,48.8428574,-123.7044012,Technical Writer
108,moratorium,Toyota,Zudun,jcb,1.6,China,27.648891,118.698821,Cost Accountant
109,Multi-tiered,Audi,Vista Hermosa,jcb,0.62,Mexico,17.7855637,-99.9792312,Environmental Tech
110,zero administration,Lamborghini,Xingxi,china-unionpay,9.57,China,30.7016468,104.0663422,Graphic Designer
111,Sharable,Infiniti,Pogonsili,americanexpress,2.2,Philippines,15.8229771,120.2604675,GIS Technical Architect
112,Progressive,Nissan,Lyubim,jcb,0.63,Russia,58.3605655,40.6845699,Information Systems Manager
113,process improvement,Chrysler,Jiaoxie,mastercard,7.87,China,22.705124,113.316811,Marketing Assistant
114,solution-oriented,Mitsubishi,Yamethin,jcb,9.2.6,Myanmar,20.4314732,96.1367935,Assistant Professor
115,Fully-configurable,Toyota,Tandayag,jcb,2.6,Philippines,9.442426,123.236968,Account Executive
116,Reverse-engineered,Porsche,Karvia,visa-electron,0.2.3,Finland,62.1331515,22.55812,Legal Assistant
117,forecast,Chevrolet,San Miguel,jcb,9.51,Costa Rica,9.8741891,-84.0605696,Chief Design Engineer
118,asymmetric,Toyota,Bazzāryah,mastercard,0.34,Palestinian Territory,32.30798,35.16593,Account Coordinator
119,Monitored,Ford,Moratuwa,jcb,0.9.5,Sri Lanka,6.7954977,79.8746207,Graphic Designer
120,hybrid,Toyota,Haruai,mastercard,3.2,Indonesia,-2.0242564,115.5444231,Cost Accountant
121,Re-engineered,BMW,Petropavlivka,laser,4.30,Ukraine,48.4187171,36.429969,Clinical Specialist
122,Grass-roots,Maserati,San Andres,jcb,3.35,Philippines,14.4693883,121.0059518,Accounting Assistant IV
123,Advanced,Acura,Onguday,diners-club-international,2.6,Russia,50.75425,86.13414,Recruiter
124,Operative,Buick,Hewan,jcb,0.37,China,30.987762,118.371345,Legal Assistant
125,Reduced,Mitsubishi,Fale old settlement,jcb,0.4.4,Tokelau,-9.38516,-171.24675,Computer Systems Analyst I
126,Ameliorated,Mercedes-Benz,Hakui,diners-club-enroute,0.8.6,Japan,36.9382393,136.8170714,Assistant Manager
127,bandwidth-monitored,Oldsmobile,Krasnyy Yar,diners-club-enroute,8.6,Russia,55.2402058,72.9177892,Technical Writer
128,encryption,Dodge,Santa Inês,jcb,7.76,Brazil,-22.6926814,-51.9051241,Project Manager
129,coherent,Lotus,Pančevo,jcb,0.92,Serbia,44.874,20.6475673,Associate Professor
130,De-engineered,Cadillac,Tabatinga,americanexpress,3.9,Brazil,-21.7414439,-48.6891129,GIS Technical Architect
131,benchmark,Mercedes-Benz,Yinhedahan’er,jcb,0.34,China,48.0288905,123.0199373,Programmer I
132,attitude-oriented,Honda,Douz,diners-club-carte-blanche,3.9.2,Tunisia,33.4614354,9.0294708,Senior Sales Associate
133,motivating,Aston Martin,Yangmiao,visa-electron,4.1.3,China,33.2991249,117.2408191,Marketing Manager
134,contingency,Isuzu,Puqi,mastercard,0.52,China,29.724692,113.900628,Administrative Assistant III
135,Virtual,GMC,Penedono,jcb,6.5.3,Portugal,40.9903208,-7.3943499,Recruiter
136,protocol,Chevrolet,Xiaochuan,switch,0.55,China,52.54952,13.35118,Project Manager
137,static,Chevrolet,Kaduela,jcb,8.3,Indonesia,-6.7917815,108.4187029,Senior Cost Accountant
138,6th generation,Land Rover,Chaoyang,mastercard,3.4,China,41.57365,120.4493879,Cost Accountant
139,neural-net,Acura,Kosan,jcb,5.34,North Korea,38.8559689,127.4214244,Engineer IV
140,toolset,Lexus,Golovchino,jcb,7.19,Russia,50.5787435,35.7888187,Account Coordinator
141,matrix,Nissan,Sukogunungkrajan,laser,2.53,Indonesia,-6.9399,111.595,Librarian
142,real-time,Chevrolet,Kashima-shi,jcb,4.1.0,Japan,35.9924294,140.6177909,Account Representative IV
143,directional,Kia,Ełk,jcb,0.9.4,Poland,53.8249945,22.3619798,Systems Administrator I
144,leading edge,Toyota,Capim Grosso,jcb,1.2.6,Brazil,-11.3801768,-40.0068953,Safety Technician I
145,info-mediaries,Dodge,Sernancelhe,instapayment,4.62,Portugal,40.8998417,-7.4900188,Product Engineer
146,utilisation,Pontiac,Loen,visa,8.2.5,Marshall Islands,40.752984,-73.9145038,Environmental Specialist
147,Versatile,Dodge,Pop Shahri,jcb,0.70,Uzbekistan,40.87642,71.1022,Analog Circuit Design manager
148,Streamlined,Mitsubishi,Majiadu,jcb,4.1.8,China,30.953479,117.674739,Payment Adjustment Coordinator
149,Sharable,Dodge,Wangchang,jcb,7.7,China,40.401045,117.998902,Staff Scientist
150,Centralized,Lincoln,Lomba,jcb,1.9,Portugal,40.862786,-8.4731932,Product Engineer
151,disintermediate,Honda,Budy,americanexpress,8.73,Ukraine,49.8932741,36.011984,Budget/Accounting Analyst II
152,hierarchy,Plymouth,Far‘ūn,visa-electron,7.9,Palestinian Territory,32.28548,35.021481,Business Systems Development Analyst
153,challenge,GMC,Anuchino,jcb,6.6.0,Russia,43.9676803,133.0547021,Quality Control Specialist
154,Monitored,Audi,Kansas City,jcb,5.3,United States,39.1070379,-94.4928531,Sales Representative
155,core,GMC,Fargo,jcb,8.49,United States,46.8843099,-96.7847834,Recruiting Manager
156,stable,Infiniti,Pore,diners-club-enroute,5.6,Colombia,5.7265629,-71.993941,Physical Therapy Assistant
157,software,Buick,Haebaru,jcb,0.2.6,Japan,26.3358903,127.875104,Administrative Officer
158,algorithm,Ford,Albufeira,jcb,7.59,Portugal,37.0939437,-8.2461254,Developer I
159,time-frame,Ford,Udënisht,switch,4.7.5,Albania,40.9629693,20.6377502,Computer Systems Analyst I
160,functionalities,Chevrolet,Gritsovskiy,jcb,0.68,Russia,54.1349846,38.1596549,Chief Design Engineer
161,Assimilated,Kia,Khawrah,visa-electron,0.23,Yemen,14.43201,46.15435,Web Developer III
162,solution,Pontiac,Tim,jcb,3.6.4,Russia,55.796264,37.719368,General Manager
163,demand-driven,Dodge,Jeżów,mastercard,6.2.1,Poland,51.8135681,19.9684918,Tax Accountant
164,Synergized,Chevrolet,Videira,jcb,4.3.6,Brazil,-27.0052075,-51.154395,Social Worker
165,Organized,Audi,Paulínia,maestro,1.18,Brazil,-22.7712817,-47.156739,Nurse
166,Graphic Interface,Acura,Antsohihy,mastercard,2.2.5,Madagascar,-14.8851268,47.9960743,Statistician IV
167,fault-tolerant,Toyota,Warungsugan,jcb,6.4,Indonesia,-6.5930581,105.977608,Financial Advisor
168,Cross-platform,Mazda,Krajan Langenharjo,jcb,7.7.0,Indonesia,-7.6184408,110.8072159,Administrative Officer
169,utilisation,GMC,Currais Novos,maestro,0.9.7,Brazil,-6.238218,-36.4797126,VP Accounting
170,Reactive,Suzuki,Temirgoyevskaya,mastercard,8.31,Russia,45.1099574,40.2950699,Structural Analysis Engineer
171,Profound,Dodge,Zhize,jcb,9.2.6,China,30.022669,101.545865,Geological Engineer
172,Team-oriented,Cadillac,Kesheng,jcb,0.4.3,China,23.382145,109.56259,Biostatistician III
173,conglomeration,Isuzu,Awgu,mastercard,0.5.1,Nigeria,6.0639962,7.4760047,Programmer III
174,explicit,Cadillac,Seraya,jcb,0.47,Indonesia,-8.412098,119.866554,Electrical Engineer
175,throughput,Honda,Gonghe,mastercard,7.8.0,China,36.284107,100.620031,Senior Quality Engineer
176,holistic,Buick,Pingshan,switch,0.18,China,22.691253,114.346251,Systems Administrator II
177,user-facing,Plymouth,Nangkasari,switch,0.97,Indonesia,-6.3865373,107.4010519,Professor
178,Decentralized,Chrysler,Seleuš,maestro,1.23,Serbia,45.1201746,20.8993932,Environmental Specialist
179,knowledge base,Cadillac,São Pedro de Trafaria,maestro,4.4.8,Portugal,38.6690462,-9.2412678,Junior Executive
180,Organic,Toyota,Miyang,jcb,4.4.7,China,21.428436,110.869567,Recruiting Manager
181,zero administration,Nissan,Sirindhorn,mastercard,0.30,Thailand,13.7850134,100.4959857,Environmental Specialist
182,6th generation,Lincoln,Jāmpur,jcb,5.95,Pakistan,29.5945152,70.6008375,Structural Analysis Engineer
183,Multi-lateral,Subaru,Öldziyt,jcb,2.1.1,Mongolia,48.1030253,102.5606182,Senior Editor
184,analyzing,Lexus,Jiaoba,visa,0.56,China,28.801077,108.102703,Legal Assistant
185,foreground,Plymouth,Paccho,jcb,0.2.6,Peru,-10.9564306,-76.933337,Sales Associate
186,User-friendly,GMC,Ikaalinen,jcb,5.2.7,Finland,61.7644425,23.0729829,Physical Therapy Assistant
187,Phased,Isuzu,Mogzon,americanexpress,0.8.7,Russia,51.7419091,111.9603596,VP Marketing
188,concept,Buick,Beicheng,jcb,9.63,China,39.224791,117.135488,Software Consultant
189,Virtual,Hyundai,Daba,jcb,0.64,China,32.165,108.8822222,Executive Secretary
190,responsive,Chevrolet,Moshkovo,jcb,0.8.4,Russia,55.3040194,83.6056675,Automation Specialist I
191,circuit,Audi,Jiepai,mastercard,0.29,China,30.911728,119.552359,Environmental Tech
192,didactic,Chevrolet,Mataguži,jcb,7.4,Montenegro,42.3248168,19.2801794,Clinical Specialist
193,attitude-oriented,Mitsubishi,Kuruman,mastercard,8.90,South Africa,-33.9905526,18.666796,VP Accounting
194,dynamic,Lexus,Ylöjärvi,visa-electron,6.30,Finland,61.549558,23.5960975,Nuclear Power Engineer
195,alliance,Dodge,Yanglinshi,mastercard,8.92,China,29.978663,111.782745,Business Systems Development Analyst
196,local,Oldsmobile,Kafir Yasif,maestro,8.95,Israel,32.9520318,35.1599957,Sales Representative
197,framework,Chevrolet,Kingston,china-unionpay,0.33,Canada,45.4136084,-66.0783767,General Manager
198,Synergized,Acura,Halamendu,laser,0.85,China,40.991594,110.722523,Food Chemist
199,24 hour,Buick,Marelesu,visa-electron,0.8.2,China,46.5067026,83.6616699,Office Assistant III
200,success,Honda,Kanada,instapayment,5.50,Indonesia,-6.2151565,106.8203259,Nurse
201,Object-based,Ford,Strassen,maestro,9.5,Luxembourg,49.6109539,6.0689379,Health Coach IV
202,national,Pontiac,Três Corações,visa,2.42,Brazil,-21.692578,-45.2515461,Analyst Programmer
203,Seamless,Chevrolet,Staryy Togul,maestro,0.13,Russia,53.4291,85.9006,Nurse Practicioner
204,Fully-configurable,Hyundai,Manta,mastercard,0.45,Ecuador,-0.9676533,-80.7089101,Legal Assistant
205,Triple-buffered,Maybach,Kineshma,laser,3.8,Russia,57.4388568,42.1747981,Programmer Analyst III
206,Up-sized,Ford,Uglyanets,jcb,9.2,Russia,51.820919,39.591263,Account Coordinator
207,national,Hyundai,La Ceja,jcb,0.53,Colombia,6.027632,-75.431596,Programmer III
208,Decentralized,Volkswagen,Saint-Grégoire,jcb,2.7,France,48.1504081,-1.6807958,Administrative Assistant II
209,Multi-channelled,Toyota,Potlot,diners-club-enroute,1.11,Indonesia,-6.254778,106.842169,Office Assistant I
210,Phased,Pontiac,Banjar Desa,maestro,8.6,Indonesia,-3.3200228,114.9991464,Mechanical Systems Engineer
211,hierarchy,Nissan,Tabuny,americanexpress,9.3.7,Russia,52.774987,78.808874,Assistant Media Planner
212,conglomeration,Dodge,Hägersten,bankcard,0.6.2,Sweden,59.2954052,17.967939,Technical Writer
213,Persevering,Jeep,Betioky,diners-club-enroute,0.19,Madagascar,-23.7219872,44.3827547,Senior Cost Accountant
214,impactful,Chevrolet,Chumpi,jcb,1.8.8,Peru,-15.10129,-73.754257,Sales Representative
215,even-keeled,Toyota,Kanekomachi,jcb,7.3,Japan,36.4027362,139.0015333,Staff Scientist
216,mission-critical,Ford,São Paulo de Olivença,jcb,2.22,Brazil,-3.6499007,-69.097023,Product Engineer
217,Pre-emptive,Lincoln,Białobrzegi,visa,0.7.6,Poland,50.1063169,22.3570583,Environmental Tech
218,Multi-tiered,Chevrolet,Dahao,jcb,1.58,China,34.563589,105.011894,Safety Technician III
219,interface,Mazda,Nalbandyan,mastercard,7.8,Armenia,40.06165,43.9852874,Registered Nurse
220,Exclusive,Mercury,Eger,diners-club-carte-blanche,0.39,Hungary,47.9523565,20.3586957,Mechanical Systems Engineer
221,disintermediate,Nissan,Kilifarevo,jcb,7.5.3,Bulgaria,42.9856238,25.6162991,Professor
222,projection,Nissan,San Francisco,visa-electron,7.2.8,Bolivia,-16.4962793,-68.1372784,Human Resources Assistant IV
223,frame,Mazda,Thị Trấn Quảng Uyên,jcb,0.2.9,Vietnam,22.6925394,106.4420595,Office Assistant IV
224,Progressive,Cadillac,Abelheira,americanexpress,6.4,Portugal,41.3345374,-8.5340895,Senior Developer
225,archive,Dodge,Duancun,jcb,8.4.6,China,29.134418,115.762844,Human Resources Assistant I
226,methodology,Ford,Chatuchak,jcb,8.3,Thailand,13.8198099,100.5633655,Financial Analyst
227,Cross-platform,Hummer,Jawf al Maqbābah,mastercard,8.3.7,Yemen,13.83783,45.83488,Nuclear Power Engineer
228,budgetary management,Saab,Lanta Timur,diners-club-us-ca,0.7.0,Indonesia,-8.6247652,118.9907046,Chemical Engineer
229,help-desk,Subaru,Santa Rosa,jcb,0.25,Peru,-11.806679,-77.1657716,Budget/Accounting Analyst I
230,Diverse,Porsche,Di Linh,bankcard,0.94,Vietnam,11.5346745,108.0954351,Financial Analyst
231,multi-tasking,Pontiac,Chust Shahri,china-unionpay,5.3.7,Uzbekistan,41.005341,71.236153,Software Test Engineer III
232,dedicated,Hyundai,Kedungdoro,switch,0.47,Indonesia,-7.2635671,112.7345789,Chemical Engineer
233,optimizing,Suzuki,Honglan,mastercard,0.66,China,31.60858,118.983733,Marketing Assistant
234,intranet,Maybach,Bulumulyo,mastercard,0.55,Indonesia,-6.7332152,111.1950767,Senior Quality Engineer
235,hybrid,Chevrolet,Chengtang,laser,8.2.4,China,36.307064,120.39631,Teacher
236,matrix,Buick,Areia Branca,maestro,4.04,Brazil,-10.7884789,-37.3185938,Executive Secretary
237,directional,Mercedes-Benz,Piraí,china-unionpay,0.68,Brazil,-22.602558,-43.9055155,Human Resources Assistant III
238,Switchable,Chevrolet,Lourido,jcb,6.26,Portugal,41.129239,-8.207141,Marketing Manager
239,next generation,Porsche,Rokytne,visa-electron,0.31,Ukraine,51.287518,27.2018656,Civil Engineer
240,Managed,Chrysler,Orléans,jcb,5.79,France,47.3591366,2.8002946,Payment Adjustment Coordinator
241,methodical,Volvo,Clarines,jcb,7.3,Venezuela,9.9399061,-65.1610557,Statistician IV
242,synergy,Dodge,Bodeh,jcb,1.4,Indonesia,-7.0277395,109.4616074,Food Chemist
243,access,Mercedes-Benz,Jinxiang,jcb,0.3.7,China,35.066619,116.311532,Desktop Support Technician
244,Secured,Acura,Kivertsi,jcb,7.8,Ukraine,50.8323221,25.4566978,VP Accounting
245,Reverse-engineered,Jaguar,Yeysk,jcb,2.0.6,Russia,46.711547,38.2755861,Analyst Programmer
246,encryption,Porsche,Imbituba,china-unionpay,3.1.3,Brazil,-28.2446355,-48.6764133,Staff Scientist
247,circuit,Mercury,Ostrožská Nová Ves,visa,0.53,Czech Republic,49.0132543,17.4380293,Operator
248,Profit-focused,GMC,Bosilovo,maestro,0.6.1,Macedonia,41.44056,22.72778,Environmental Tech
249,throughput,Volkswagen,Old Kilcullen,jcb,0.59,Ireland,53.1310185,-6.7449927,Nurse Practicioner
250,frame,Ford,Sandakan,mastercard,0.6.0,Malaysia,5.8833366,118.0357162,Administrative Officer
251,Stand-alone,Toyota,San Rafael,switch,6.2,Philippines,14.5697429,121.0190818,Nurse Practicioner
252,Multi-tiered,Subaru,Quwa,maestro,0.6.1,China,40.6502768,-73.9299499,Senior Cost Accountant
253,software,Volkswagen,Dobřív,jcb,6.89,Czech Republic,49.7144884,13.6861064,Accounting Assistant IV
254,artificial intelligence,MINI,Libao,bankcard,4.94,China,32.556936,120.681655,Media Manager II
255,Re-engineered,Audi,Longsha,jcb,6.24,China,47.317308,123.9575311,Financial Advisor
256,Re-engineered,Toyota,Liufeng,jcb,5.70,China,22.919228,115.652151,VP Marketing
257,Triple-buffered,Infiniti,Woniuhe,americanexpress,6.72,China,48.09967,122.667783,Senior Financial Analyst
258,De-engineered,Dodge,Yushu,americanexpress,0.57,China,32.993106,97.008784,Technical Writer
259,alliance,Mazda,Szeged,jcb,7.0.6,Hungary,46.2646441,20.1120379,Product Engineer
260,well-modulated,Infiniti,Xincun,maestro,0.7.5,China,18.412445,109.971328,Marketing Assistant
261,leverage,Mitsubishi,Meilin,jcb,8.3,China,31.7311971,117.2313179,Web Designer II
262,Extended,Pontiac,Hluboká nad Vltavou,jcb,0.4.0,Czech Republic,49.0522544,14.4342708,Structural Engineer
263,zero defect,Chevrolet,Valbo,jcb,4.2.2,Sweden,60.6466216,17.0064517,VP Product Management
264,access,Maybach,Marzhing,diners-club-enroute,0.38,China,33.288467,100.435347,Legal Assistant
265,artificial intelligence,Lincoln,Jinqu,diners-club-international,3.8,China,34.208655,107.788999,Systems Administrator IV
266,Horizontal,Mitsubishi,Meiktila,visa-electron,0.54,Myanmar,20.8765931,95.8601611,Dental Hygienist
267,multimedia,Toyota,Targanice,diners-club-carte-blanche,4.52,Poland,49.8162832,19.3295966,Web Designer II
268,Switchable,Chevrolet,Washington,visa,0.8.0,United States,38.9273849,-77.0125445,Project Manager
269,Graphic Interface,GMC,Inčukalns,switch,5.87,Latvia,57.0994342,24.685557,Compensation Analyst
270,Future-proofed,Land Rover,Naples,maestro,0.78,United States,25.9369686,-81.5596427,Budget/Accounting Analyst III
271,client-driven,Infiniti,Palaihari,jcb,0.5.9,Indonesia,-3.7901775,114.7380385,Cost Accountant
272,heuristic,Audi,Surat Thani,mastercard,9.1.2,Thailand,9.2964349,99.0571089,Payment Adjustment Coordinator
273,info-mediaries,Mercedes-Benz,Montpellier,jcb,0.8.4,France,43.6746011,3.9826826,Compensation Analyst
274,tangible,Lincoln,Hrazdan,americanexpress,0.48,Armenia,40.5353559,44.7695698,Executive Secretary
275,application,Cadillac,Janūb as Surrah,diners-club-carte-blanche,5.5,Kuwait,29.26917,47.97806,Senior Editor
276,Cross-platform,Lincoln,Binitayan,switch,0.2.7,Philippines,13.1554369,123.7154023,VP Marketing
277,Seamless,GMC,Kepel,jcb,0.96,Indonesia,-7.6371755,112.9386472,Software Test Engineer III
278,global,Pontiac,Banjar Kawan,diners-club-enroute,2.45,Indonesia,-8.6354966,115.1573613,Structural Analysis Engineer
279,Persistent,Bentley,Ramat Yishay,jcb,7.4.8,Israel,32.704029,35.166003,Analog Circuit Design manager
280,empowering,Honda,Bafang,jcb,4.53,Cameroon,5.1601362,10.1871351,Media Manager I
281,De-engineered,BMW,Nioro,maestro,0.3.6,Mali,15.23199,-9.588628,Programmer Analyst II
282,demand-driven,Lexus,La Esperanza,maestro,1.57,Peru,-8.0580651,-79.0552494,Office Assistant II
283,Self-enabling,GMC,Dnipryany,switch,7.29,Ukraine,46.7523145,33.2473218,Tax Accountant
284,systematic,Volkswagen,Vidyayevo,maestro,0.4.8,Russia,68.88333,33.01667,Mechanical Systems Engineer
285,parallelism,Plymouth,Nanterre,china-unionpay,9.9,France,48.9098794,2.2829955,Software Consultant
286,standardization,Ford,Prosyana,china-unionpay,2.1.2,Ukraine,48.116045,36.3725301,Automation Specialist III
287,fault-tolerant,Ford,Hepang,americanexpress,0.2.3,Indonesia,-6.8308443,110.876154,Cost Accountant
288,6th generation,Saturn,El Banco,jcb,0.1.5,Colombia,9.0483173,-73.8889499,Human Resources Assistant III
289,eco-centric,Dodge,Gabasumdo,china-unionpay,0.6.7,China,35.2589,100.54994,Quality Control Specialist
290,Optimized,Pontiac,Yashio-shi,jcb,1.30,Japan,35.8113988,139.8370142,Design Engineer
291,systematic,BMW,Waco,jcb,0.17,United States,31.1393795,-97.8047404,VP Marketing
292,national,Ford,Mtimbira,jcb,7.69,Tanzania,-8.781999,36.3608819,Clinical Specialist
293,Compatible,Chevrolet,Lopez Jaena,laser,8.8.3,Philippines,8.529106,123.74979,Help Desk Operator
294,core,Chevrolet,Barrosas,jcb,0.66,Portugal,41.3395549,-8.2519171,Recruiting Manager
295,User-centric,Chevrolet,Figueiró dos Vinhos,jcb,4.2,Portugal,39.906972,-8.2750089,Community Outreach Specialist
296,Centralized,Chrysler,Padilla,jcb,2.47,Bolivia,-19.3088778,-64.3031372,Health Coach I
297,optimizing,Hyundai,Gaoqiao,jcb,0.58,China,31.364902,108.249509,Accounting Assistant IV
298,Advanced,Nissan,Domont,jcb,1.6,France,49.034461,2.3496109,Design Engineer
299,system-worthy,Kia,Rizal,switch,2.1,Philippines,14.5665378,121.1092186,Recruiting Manager
300,challenge,Toyota,Nikol’sk,jcb,7.2,Russia,60.0209443,44.9318159,Biostatistician II
301,homogeneous,BMW,Liushikou,solo,0.73,China,30.847047,116.363101,Senior Developer
302,Triple-buffered,Toyota,Lipu,jcb,0.4.3,China,24.488342,110.395104,Research Associate
303,project,Cadillac,Umuarama,jcb,0.9.3,Brazil,-23.7661064,-53.3206105,Financial Advisor
304,emulation,Ford,Ciguha Tengah,americanexpress,0.31,Indonesia,-7.04383,106.82849,Quality Control Specialist
305,Upgradable,Volkswagen,Bandhagen,visa,4.8.1,Sweden,59.2643041,18.0399695,Compensation Analyst
306,Enhanced,Dodge,Mundybash,jcb,0.97,Russia,53.2140133,87.2799316,VP Quality Control
307,budgetary management,Infiniti,Fushun,jcb,0.35,China,41.880872,123.957208,Systems Administrator I
308,solution,BMW,Vychegodskiy,jcb,0.61,Russia,61.243306,46.900459,Chemical Engineer
309,Virtual,Volkswagen,Xinglin,mastercard,0.27,China,46.465362,124.670305,Programmer Analyst IV
310,forecast,Isuzu,Tabuating,diners-club-enroute,9.34,Philippines,15.3993773,120.9422852,Research Nurse
311,Switchable,Saab,Kibondo,jcb,0.6.4,Tanzania,-3.5837638,30.7177509,VP Marketing
312,artificial intelligence,Honda,Évreux,jcb,0.95,France,49.0226173,1.1394024,Account Coordinator
313,Upgradable,Chevrolet,Pelabuhanratu,diners-club-carte-blanche,0.5.6,Indonesia,-6.9852341,106.5475399,Compensation Analyst
314,clear-thinking,Infiniti,Chiţcani,visa-electron,6.0.9,Moldova,47.009324,28.8389611,Marketing Manager
315,motivating,Subaru,Xike,china-unionpay,8.65,China,31.228026,121.454211,Financial Advisor
316,systematic,Ford,Oued Lill,americanexpress,5.9.4,Tunisia,36.83408,10.04057,Electrical Engineer
317,forecast,Mitsubishi,Krasnosilka,jcb,4.6,Ukraine,46.6211188,30.7719233,Actuary
318,Expanded,Chevrolet,Bedford,mastercard,9.82,Canada,45.11678,-72.98244,Computer Systems Analyst IV
319,Stand-alone,Volkswagen,Mamonovo,jcb,0.4.3,Russia,54.4658152,19.9348453,Computer Systems Analyst II
320,solution,Chevrolet,Ban Mo,jcb,6.8.3,Thailand,14.6199611,100.7323332,Staff Scientist
321,multi-tasking,Toyota,Zijin,jcb,2.29,China,23.63841,115.182134,Legal Assistant
322,Expanded,Volvo,Si Wilai,jcb,0.87,Thailand,18.2505167,103.4910621,Cost Accountant
323,secured line,Toyota,Yaroslavl,visa-electron,5.6.4,Russia,55.775282,37.61479,Speech Pathologist
324,toolset,Mercedes-Benz,Nhà Bè,switch,0.3.0,Vietnam,10.6952642,106.704874,Programmer III
325,Profit-focused,Mercedes-Benz,Zhujiang,mastercard,5.59,China,22.7694444,113.6216667,Computer Systems Analyst I
326,Synchronised,Ford,El Carmen,mastercard,0.41,Argentina,-43.2744697,-65.3109259,Director of Sales
327,emulation,Buick,Frederiksberg,laser,0.7.7,Denmark,55.6789638,12.5383906,Quality Engineer
328,portal,Nissan,Itapetinga,jcb,0.4.8,Brazil,-15.2475119,-40.2509918,Marketing Manager
329,process improvement,Dodge,Bang Krathum,jcb,0.1.4,Thailand,16.5909145,100.2992789,Assistant Professor
330,bifurcated,BMW,Dąbie,bankcard,9.9,Poland,52.0872281,18.8224372,Safety Technician IV
331,multi-state,Ford,Shijia,jcb,3.7.2,China,29.649109,117.136252,Web Designer III
332,Synchronised,Buick,Aş Şaff,jcb,0.1.3,Egypt,29.6516537,31.3159513,Marketing Assistant
333,asymmetric,Volkswagen,Tigbaw,visa,4.11,Philippines,11.1179302,123.0099723,Business Systems Development Analyst
334,methodology,Hyundai,Goranboy,americanexpress,4.8.0,Azerbaijan,40.6073164,46.7807131,Operator
335,motivating,BMW,Montgomery,china-unionpay,9.1.0,United States,38.5385973,-121.6954666,Health Coach II
336,Intuitive,Ford,Villa Florida,laser,2.5,Paraguay,-26.4105245,-57.1154122,Administrative Assistant I
337,optimizing,BMW,Ebebiyin,jcb,1.66,Equatorial Guinea,2.1514272,11.3317605,Civil Engineer
338,product,Ford,Dadoupu,instapayment,6.0.9,China,44.395234,125.697103,Tax Accountant
339,fresh-thinking,Pontiac,Zhouwang,diners-club-us-ca,0.2.2,China,37.9331181,102.6293927,Marketing Assistant
340,Multi-tiered,Subaru,General Lavalle,jcb,6.7,Argentina,-34.5595896,-58.6022596,Design Engineer
341,directional,Dodge,Nanyang,jcb,9.50,China,32.990664,112.528308,Assistant Professor
342,even-keeled,Toyota,Aloleng,mastercard,9.40,Philippines,10.769542,122.5157661,Senior Quality Engineer
343,forecast,Dodge,Bronnitsy,laser,0.6.6,Russia,55.4055305,38.2447393,Accounting Assistant IV
344,frame,Chrysler,Musina,switch,1.1,South Africa,-22.8824635,30.1454694,Senior Editor
345,non-volatile,GMC,Franceville,jcb,7.80,Gabon,-1.6196441,13.6015463,Structural Engineer
346,bottom-line,Subaru,Lille,switch,0.84,France,50.5429237,3.086469,Research Nurse
347,Realigned,Ferrari,Qiaole,jcb,0.36,China,28.643587,115.568583,Environmental Specialist
348,website,Ford,Gogosuket,diners-club-us-ca,4.3,Indonesia,-8.0896,112.2944,Junior Executive
349,methodical,Pontiac,Pankovka,maestro,0.8.4,Russia,58.4981562,31.1990697,Information Systems Manager
350,structure,Lexus,Blimbing,jcb,0.50,Indonesia,-7.9553448,112.649662,Software Consultant
351,Polarised,Acura,Frederiksberg,mastercard,1.4.7,Denmark,55.6710988,12.5368683,Information Systems Manager
352,core,Ford,Ibshawāy,jcb,9.41,Egypt,29.3594128,30.6816163,Social Worker
353,Inverse,BMW,Komyshnya,diners-club-enroute,0.1.9,Ukraine,50.1837815,33.6817424,Editor
354,regional,Honda,Suci Kaler,jcb,0.59,Indonesia,-7.2125883,107.9205937,Administrative Officer
355,Customizable,Audi,Tangguhang,laser,7.3.3,Indonesia,-10.1535,120.6278,Account Coordinator
356,impactful,Chrysler,La Ronge,jcb,7.79,Canada,55.10013,-105.28422,VP Marketing
357,implementation,Dodge,Ārt Khwājah,jcb,5.00,Afghanistan,37.08571,69.47958,Financial Advisor
358,stable,Toyota,Smolensk,americanexpress,0.14,Russia,54.7278753,31.9292855,Director of Sales
359,Graphic Interface,Chevrolet,Zacatecoluca,jcb,0.92,El Salvador,13.5122393,-88.8694951,Statistician II
360,disintermediate,Pontiac,Cigadung,jcb,7.1.4,Indonesia,-6.883367,107.6266329,Occupational Therapist
361,User-centric,Porsche,Kolochava,switch,4.7.6,Ukraine,48.418023,23.7371118,Environmental Specialist
362,utilisation,GMC,Dalinhe,jcb,0.7.6,China,39.562646,113.369956,Nurse Practicioner
363,Diverse,Ford,Oskarshamn,diners-club-carte-blanche,3.2,Sweden,57.2702863,16.4538847,Civil Engineer
364,multi-state,Pontiac,Markópoulo Oropoú,switch,0.45,Greece,38.2892237,23.8248958,Analyst Programmer
365,interactive,Ford,Enschede,maestro,0.17,Netherlands,52.2254703,6.893632,Chemical Engineer
366,attitude,Land Rover,Ponyri Vtoryye,maestro,0.35,Russia,52.27994,36.22461,Food Chemist
367,instruction set,Ford,Nanzhen,jcb,3.0,China,31.04808,121.749495,Business Systems Development Analyst
368,ability,Honda,Zarzal,maestro,0.5.2,Colombia,4.2886233,-76.0623979,Data Coordiator
369,Graphical User Interface,BMW,La Unión,china-unionpay,1.74,Colombia,5.902266,-75.329557,Environmental Tech
370,eco-centric,Land Rover,Goussainville,jcb,1.9,France,49.0194225,2.4613377,Librarian
371,Streamlined,Land Rover,Ashikaga,jcb,0.19,Japan,36.2761885,139.5356365,Assistant Media Planner
372,Fully-configurable,GMC,Jaciara,laser,9.73,Brazil,-16.0010539,-55.0493375,Compensation Analyst
373,intangible,Honda,Borlänge,diners-club-carte-blanche,0.82,Sweden,60.4783655,15.3710047,Physical Therapy Assistant
374,Extended,Cadillac,Kramfors,switch,8.79,Sweden,63.0097972,18.1864547,Structural Analysis Engineer
375,frame,GMC,Zimmi,jcb,0.2.1,Sierra Leone,7.3139328,-11.3062382,Analyst Programmer
376,systemic,Ford,Ube,mastercard,0.4.8,Japan,34.0319016,131.0103712,Structural Engineer
377,eco-centric,Audi,Banjar Swastika,mastercard,3.2.1,Indonesia,-8.4318,114.86,Senior Editor
378,middleware,Ford,Talipan,laser,0.9.8,Philippines,13.9641503,121.655933,Engineer IV
379,Future-proofed,Buick,Vällingby,jcb,0.79,Sweden,59.3639237,17.8769444,Graphic Designer
380,Compatible,Mercedes-Benz,Ban Lam Luk Ka,laser,0.30,Thailand,13.9483457,100.791665,Financial Advisor
381,eco-centric,Volvo,San Francisco,jcb,9.33,Mexico,20.8965838,-105.4093552,Senior Financial Analyst
382,static,Jeep,Haodian,jcb,0.97,China,31.79051,113.751463,Pharmacist
383,Profound,Oldsmobile,Xiayunling,maestro,0.23,China,39.728801,115.751364,Clinical Specialist
384,Proactive,Honda,Živinice,diners-club-carte-blanche,0.1.8,Bosnia and Herzegovina,44.4466286,18.6510559,Graphic Designer
385,national,Toyota,Krajan Jabungcandi,jcb,2.5,Indonesia,-7.7218793,113.4785837,Marketing Assistant
386,contextually-based,Jaguar,Petaluma,jcb,5.40,United States,38.32,-122.64,Dental Hygienist
387,Implemented,Mercedes-Benz,Kenzhe,jcb,0.32,Russia,43.4997666,43.5537167,Administrative Assistant III
388,context-sensitive,GMC,Taltal,visa,1.4.3,Philippines,14.573997,121.049071,Data Coordiator
389,Automated,Pontiac,Yushanpu,visa,0.87,China,27.135999,111.106104,Administrative Assistant IV
390,encryption,BMW,Thị Trấn Yên Châu,instapayment,0.35,Vietnam,21.0471807,104.2991973,Chemical Engineer
391,system engine,Chevrolet,Kafr ad Dawwār,maestro,9.5,Egypt,31.1356648,30.1327813,General Manager
392,6th generation,Cadillac,São Paio de Gramaços,instapayment,0.83,Portugal,40.3519909,-7.8410273,Staff Scientist
393,encoding,Nissan,Banjar Sambangan,jcb,2.83,Indonesia,-8.1485516,115.0983069,Account Representative IV
394,actuating,Volkswagen,Dabat,jcb,0.4.6,Ethiopia,12.9813794,37.7622971,Recruiter
395,Monitored,GMC,Milwaukee,china-unionpay,7.2.1,United States,42.3745311,-88.1263369,Assistant Manager
396,Face to face,Nissan,Dazhou,diners-club-enroute,2.97,China,31.209571,107.468023,Recruiting Manager
397,Adaptive,Volvo,Évry,maestro,6.07,France,48.6277459,2.4381665,Research Assistant IV
398,archive,Eagle,Leworook,jcb,8.17,Indonesia,-8.3870308,122.8295192,Help Desk Technician
399,support,Jaguar,Bayeux,mastercard,0.31,France,49.2803655,-0.2062549,Executive Secretary
400,migration,Chevrolet,Leonídio,jcb,9.4.4,Greece,37.1672767,22.8592838,Desktop Support Technician
401,Extended,Toyota,Ciranca Satu,switch,3.0.1,Indonesia,-7.03126,108.28306,Budget/Accounting Analyst I
402,superstructure,Mazda,Luopu,jcb,0.11,China,37.073667,80.188986,Budget/Accounting Analyst I
403,Profound,Cadillac,Shulan,americanexpress,0.4.2,China,44.406105,126.965607,Professor
404,Visionary,Pontiac,Lobos,bankcard,9.6,Argentina,-34.6234902,-58.4955016,Engineer III
405,knowledge base,Mercedes-Benz,Malianzhuang,jcb,0.49,China,37.075814,120.468847,Web Designer I
406,Self-enabling,Plymouth,Antonina,jcb,3.2.6,Brazil,-25.4328356,-48.7162067,Tax Accountant
407,Visionary,Mitsubishi,Nggelok,jcb,0.8.3,Indonesia,-8.6489,120.7616,Programmer Analyst IV
408,toolset,Oldsmobile,Krajan Tegalombo,diners-club-carte-blanche,8.41,Indonesia,-7.9110809,111.4253892,Research Assistant IV
409,Self-enabling,Ford,Farmington,mastercard,0.2.1,United States,42.4643438,-83.4056438,Account Coordinator
410,Cross-group,Suzuki,Vista Hermosa,switch,7.02,Mexico,20.1591959,-100.5064114,Registered Nurse
411,adapter,Ford,Ugep,jcb,0.7.3,Nigeria,5.8066339,8.0765288,Geologist I
412,zero administration,Eagle,La Palma,jcb,8.71,Panama,8.2853585,-78.1792434,Pharmacist
413,flexibility,Geo,Tonoas Municipal Building,jcb,4.5,Micronesia,7.3760605,151.8843916,Staff Scientist
414,Multi-layered,Land Rover,Kyankwanzi,jcb,1.0,Uganda,1.2061176,31.8164031,Director of Sales
415,Managed,Saturn,Saraktash,jcb,0.84,Russia,51.7920503,56.3442985,Executive Secretary
416,task-force,Pontiac,Xijiao,china-unionpay,7.6.1,China,39.9947462,116.3397725,VP Sales
417,firmware,Toyota,Guinobatan,china-unionpay,0.34,Philippines,13.1870951,123.6222777,Senior Developer
418,Proactive,Lotus,Gozdowo,jcb,0.2.5,Poland,52.7229746,19.6926546,VP Accounting
419,neural-net,Nissan,Caen,jcb,4.1.8,France,49.285973,-0.4889547,Business Systems Development Analyst
420,Business-focused,BMW,Katakwi,americanexpress,0.78,Uganda,1.973103,34.0641419,Financial Analyst
421,array,Honda,Ngeru,china-unionpay,1.6,Indonesia,-8.5056516,117.5319733,Legal Assistant
422,Decentralized,Subaru,Bektemir,jcb,6.6.3,Uzbekistan,41.236675,69.3413913,Professor
423,incremental,Chevrolet,Florida,jcb,1.49,Honduras,15.026492,-88.8383036,Business Systems Development Analyst
424,Decentralized,Pontiac,Aramayuan,laser,9.7,Philippines,9.17008,118.1872,Occupational Therapist
425,full-range,Hyundai,Izvestkovyy,china-unionpay,7.3,Russia,50.255556,136.640833,Sales Associate
426,object-oriented,Chevrolet,Rahayu Dua,china-unionpay,1.2,Indonesia,-7.8184706,110.3922413,Geological Engineer
427,matrix,Audi,Ciudad Ojeda,visa-electron,0.82,Venezuela,10.2214803,-71.3111773,Associate Professor
428,Versatile,Honda,Baton Rouge,jcb,0.3.8,United States,30.372807,-91.1833043,VP Marketing
429,collaboration,Chevrolet,Quyangqiao,visa,7.7.2,China,38.238247,114.491954,Quality Control Specialist
430,leverage,Mazda,Mursaba,china-unionpay,0.4.5,Indonesia,-6.9717,112.8592,Director of Sales
431,Open-source,Panoz,Mazār-e Sharīf,china-unionpay,6.0.7,Afghanistan,36.6926167,67.1179511,Administrative Officer
432,website,Mitsubishi,Muzidian,americanexpress,0.59,China,31.188658,115.36761,Safety Technician II
433,open architecture,Cadillac,Nîmes,solo,2.6.3,France,43.8447278,4.3520438,Clinical Specialist
434,multi-state,Ram,Tangwei,jcb,0.19,China,22.512308,110.079171,Help Desk Operator
435,Horizontal,Mercury,Ordynskoye,bankcard,1.4,Russia,54.3777115,81.9305699,Electrical Engineer
436,grid-enabled,Pontiac,Lajkovac,jcb,0.44,Serbia,44.3669363,20.1616645,Cost Accountant
437,protocol,Subaru,Siding,jcb,7.79,Indonesia,1.1752216,109.9973244,Recruiter
438,Fully-configurable,GMC,Västerås,jcb,0.7.5,Sweden,59.6845926,16.6212715,Executive Secretary
439,fresh-thinking,Mitsubishi,Józefosław,jcb,6.3.5,Poland,52.1012559,21.053265,Chemical Engineer
440,support,Audi,Aksha,jcb,0.4.6,Russia,50.2850778,113.2766861,Speech Pathologist
441,Graphic Interface,Ford,Pérama,jcb,8.2,Greece,37.9656089,23.5677089,Librarian
442,archive,Plymouth,Dayr Abū Ḑa‘īf,visa-electron,0.41,Palestinian Territory,32.456061,35.364922,Recruiter
443,Switchable,Saturn,Gandiaye,jcb,9.8,Senegal,14.2445365,-16.2728091,Staff Scientist
444,dynamic,Chevrolet,Xibing,americanexpress,0.32,China,36.617134,101.778223,Desktop Support Technician
445,Multi-layered,Mitsubishi,Kuripan,jcb,0.9.4,Indonesia,-8.6677026,116.165484,Administrative Assistant IV
446,infrastructure,Chrysler,Wenquan,jcb,0.69,China,31.364042,108.520914,Librarian
447,Persevering,Saturn,Paratunka,jcb,5.2.8,Russia,52.96202,158.25723,Professor
448,Customizable,Honda,El Soberbio,jcb,0.5.2,Argentina,-27.284815,-54.198107,Recruiting Manager
449,upward-trending,Cadillac,Sinmak,jcb,0.3.6,North Korea,38.4215487,126.2332502,Human Resources Assistant III
450,client-server,Chevrolet,Larreynaga,jcb,0.7.6,Nicaragua,12.6757233,-86.571617,Human Resources Assistant I
451,exuding,Honda,Siwa Oasis,jcb,1.76,Egypt,29.2031708,25.5195451,Accountant I
452,Organic,Chevrolet,Shangjin,solo,7.16,China,29.841047,112.673519,GIS Technical Architect
453,coherent,Mitsubishi,Victoriaville,mastercard,0.4.6,Canada,46.0845,-71.9782415,Structural Analysis Engineer
454,fault-tolerant,Chevrolet,Angkimang,maestro,0.5.4,Indonesia,-2.7201714,115.2719048,Civil Engineer
455,Open-source,Dodge,Mikhaylovka,jcb,0.62,Russia,55.9835962,37.1465904,Junior Executive
456,attitude,Bentley,Tumaco,americanexpress,3.6.3,Colombia,2.2763077,-78.5887951,Quality Control Specialist
457,Focused,Chevrolet,Xirikxiy,jcb,0.2.4,China,47.357916,88.027707,Speech Pathologist
458,attitude,BMW,Nepeña,americanexpress,0.43,Peru,-9.1738986,-78.3600448,Product Engineer
459,Cross-platform,Honda,Chugur,jcb,0.31,Peru,-6.6712034,-78.7383574,Recruiting Manager
460,structure,Cadillac,San Agustin,jcb,8.7,Philippines,14.5671014,121.0312325,Research Associate
461,Public-key,Volkswagen,Liaobu,jcb,4.9.4,China,22.99732,113.87497,Nuclear Power Engineer
462,matrices,Pontiac,Kelapa,mastercard,9.8,Indonesia,-1.880763,105.668503,Director of Sales
463,Customizable,Chrysler,Hamilton,jcb,5.1,New Zealand,-37.786693,175.282269,Nurse Practicioner
464,systemic,Ram,Kalisangkrah Lor,jcb,6.9,Indonesia,-7.759054,113.0396024,Chief Design Engineer
465,exuding,Mazda,Muting,jcb,0.47,Indonesia,-7.3162208,140.4308159,Media Manager I
466,Synergistic,Toyota,Seririt,mastercard,5.99,Indonesia,-8.2053196,114.9279547,Software Engineer II
467,fresh-thinking,Dodge,Bugcaon,mastercard,0.7.1,Philippines,8.0419777,125.1086998,Quality Control Specialist
468,Synchronised,Chevrolet,Zhangshui,maestro,0.5.8,China,29.815139,121.300551,Software Engineer I
469,archive,Bugatti,Novi Travnik,instapayment,1.9.1,Bosnia and Herzegovina,44.1748191,17.6634251,Human Resources Manager
470,Realigned,Mazda,Villa Atamisqui,americanexpress,9.1.6,Argentina,-28.5349691,-63.8241184,Quality Engineer
471,Open-source,Toyota,Hetian,jcb,0.11,China,37.114157,79.922211,Operator
472,heuristic,Ford,Huacrachuco,jcb,8.3,Peru,-8.637081,-77.068703,Automation Specialist II
473,complexity,Kia,Sexiong,maestro,8.99,China,31.394935,92.835795,VP Product Management
474,fresh-thinking,Ford,Täby,maestro,7.39,Sweden,59.4304876,18.0591041,Data Coordiator
475,24 hour,Ford,Xiaojia,americanexpress,0.7.7,China,32.396961,117.737327,Senior Financial Analyst
476,Graphic Interface,Subaru,Jiangkou,mastercard,0.26,China,27.69965,108.839557,Software Engineer II
477,info-mediaries,Mercedes-Benz,Ea Drăng,diners-club-carte-blanche,4.61,Vietnam,13.204053,108.2080973,Senior Quality Engineer
478,Managed,Mercury,Maroanging,americanexpress,3.8.3,Indonesia,-4.6589357,120.3594043,GIS Technical Architect
479,Down-sized,Chevrolet,Burgas,jcb,0.6.9,Bulgaria,42.5187534,27.4772798,Software Consultant
480,demand-driven,Jeep,Sannois,china-unionpay,9.9.4,France,48.9648921,2.2558072,Librarian
481,interactive,GMC,Lameiras,instapayment,0.6.3,Portugal,38.8478071,-9.3384289,Recruiter
482,transitional,Porsche,Mó,diners-club-carte-blanche,4.0,Portugal,41.646065,-8.4826853,Desktop Support Technician
483,customer loyalty,BMW,Taizhou,diners-club-us-ca,9.90,China,28.65638,121.42076,Professor
484,contingency,Porsche,Lagarto,jcb,4.9,Brazil,-10.9057388,-37.681228,Research Assistant I
485,internet solution,Acura,Warungbuah,visa,2.1,Indonesia,-6.2916321,106.9593926,Design Engineer
486,Right-sized,Nissan,Padhahegha,diners-club-carte-blanche,0.2.2,Indonesia,-8.7733,121.137,Systems Administrator I
487,real-time,Mercedes-Benz,Caigangan,mastercard,2.7.4,Philippines,13.2586816,121.9316847,Analyst Programmer
488,framework,Suzuki,Budapest,jcb,7.52,Hungary,47.4031036,19.0922063,Marketing Manager
489,definition,Chevrolet,Liuxia,visa-electron,9.01,China,30.242572,120.053059,VP Sales
490,policy,Pontiac,Huangchuan,china-unionpay,8.14,China,32.131522,115.051908,Actuary
491,software,Chevrolet,Gargaliánoi,jcb,0.12,Greece,37.0654883,21.6379278,Data Coordiator
492,synergy,Cadillac,Phayakkhaphum Phisai,visa,9.1,Thailand,15.5216056,103.2201828,Mechanical Systems Engineer
493,time-frame,Mercury,Gorelki,maestro,8.16,Russia,54.2474065,37.6031799,Help Desk Operator
494,flexibility,Lexus,San Francisco,jcb,6.85,Mexico,20.8965838,-105.4093552,Programmer IV
495,Synergized,Lincoln,Cabricán,laser,5.1.6,Guatemala,15.0690612,-91.6341489,Graphic Designer
496,policy,Ford,Shestakovo,switch,0.78,Russia,56.4874279,103.9655476,Environmental Specialist
497,info-mediaries,Toyota,Ingeniero Guillermo N. Juárez,jcb,7.1,Argentina,-34.5939526,-58.5769684,Account Executive
498,complexity,Chevrolet,Saqqez,mastercard,0.9.1,Iran,36.2389448,46.2779705,Director of Sales
499,pricing structure,Hummer,Fendou,jcb,0.6.3,China,40.1598524,116.8212507,Community Outreach Specialist
500,Face to face,Chevrolet,Shaliu,visa-electron,7.35,China,41.6528112,123.3427328,Community Outreach Specialist
501,Sharable,Ford,Baoyang,jcb,0.70,China,27.804365,120.738172,Help Desk Operator
502,challenge,Saturn,Stockholm,jcb,8.12,Sweden,47.0163969,-68.1430029,Actuary
503,5th generation,Audi,Falun,laser,9.25,Sweden,60.6132796,15.6197152,Accountant III
504,Universal,Lexus,Satte,jcb,9.5.3,Japan,36.0821986,139.7249685,Automation Specialist II
505,bottom-line,Honda,Glatik,maestro,8.38,Indonesia,-6.9569954,112.5408991,Internal Auditor
506,installation,Lexus,Itbayat,visa,6.6,Philippines,20.7236765,121.8097656,Safety Technician III
507,matrices,Isuzu,Kawagoe,jcb,0.88,Japan,34.9442746,132.4282484,Research Nurse
508,local,Ford,São José dos Campos,jcb,0.3.1,Brazil,-23.2251621,-45.8861749,Senior Cost Accountant
509,access,Ford,Hanyuan,diners-club-carte-blanche,0.3.4,China,29.344616,102.652483,VP Sales
510,Compatible,Audi,Uitiuhtuan,jcb,3.72,Indonesia,-10.2824604,123.3205544,Nuclear Power Engineer
511,system-worthy,Toyota,Askersund,visa-electron,4.4.4,Sweden,58.8781209,14.9037055,Quality Engineer
512,data-warehouse,Isuzu,Níkaia,instapayment,0.9.6,Greece,37.9746194,23.6412944,Assistant Media Planner
513,static,Buick,Munkfors,maestro,0.6.1,Sweden,59.8557818,13.5485237,Accounting Assistant III
514,regional,Chevrolet,Monsanto,maestro,0.40,Portugal,40.0342727,-7.1068883,Engineer IV
515,Devolved,Chevrolet,Yonghe,visa-electron,0.90,China,36.759507,110.632006,Environmental Specialist
516,monitoring,Mercury,Isak,maestro,1.9.7,Indonesia,4.449797,96.884193,Compensation Analyst
517,superstructure,BMW,Nanfeng,jcb,8.2.2,China,27.218444,116.525725,Legal Assistant
518,impactful,Honda,Xinle,visa,3.47,China,38.343295,114.684014,Social Worker
519,Assimilated,Ford,Lillers,diners-club-carte-blanche,0.74,France,50.5540427,2.4609362,Research Associate
520,Balanced,Suzuki,Colca,jcb,0.6.9,Peru,-15.6093293,-72.0896229,VP Sales
521,secondary,Suzuki,Avignon,maestro,9.1,France,43.952499,4.804022,Paralegal
522,flexibility,MINI,Shijing,visa-electron,0.73,China,24.625561,118.431541,Community Outreach Specialist
523,Synergistic,Jeep,Ljubovija,maestro,8.40,Serbia,44.1884454,19.3776743,Quality Engineer
524,local,Cadillac,Aleg,mastercard,2.2,Mauritania,17.0516148,-13.9114989,Structural Engineer
525,analyzer,Infiniti,Milín,diners-club-us-ca,0.61,Czech Republic,49.6933676,14.0095887,Research Assistant I
526,real-time,Mercedes-Benz,Oslo,jcb,0.1.2,Norway,59.9363422,10.7356301,Legal Assistant
527,parallelism,BMW,Casa Branca,diners-club-enroute,0.20,Brazil,-21.7712926,-47.0856897,Senior Cost Accountant
528,Managed,Ford,Kuytun,jcb,4.0.8,Russia,54.3352057,101.503572,Pharmacist
529,access,Saab,Vinica,jcb,8.73,Croatia,46.3395131,16.1537893,Senior Sales Associate
530,leverage,Honda,Gokwe,jcb,6.8.9,Zimbabwe,-18.2167271,28.9470422,Software Test Engineer III
531,installation,BMW,Chiguayante,jcb,5.37,Chile,-36.9532166,-73.017378,Sales Representative
532,Fundamental,Dodge,Patong,diners-club-enroute,6.30,Philippines,7.894825,98.298895,Software Consultant
533,Innovative,Pontiac,San Miguel,switch,0.78,Paraguay,-26.5380045,-57.0421483,Desktop Support Technician
534,knowledge user,GMC,Pisangkemeng,bankcard,0.3.9,Indonesia,-8.8025,117.7774,Account Representative III
535,Open-source,BMW,Atlanta,americanexpress,5.1.8,United States,33.76,-84.39,Registered Nurse
536,multi-tasking,Dodge,Liaoyang,mastercard,8.6,China,41.267244,123.236944,Paralegal
537,optimal,Hyundai,Dogarmo,bankcard,2.41,China,35.063892,101.818885,Senior Quality Engineer
538,6th generation,Pontiac,Shilong,jcb,6.7.4,China,23.105394,113.874335,Nurse
539,contextually-based,GMC,Pakis,americanexpress,0.3.5,Indonesia,-7.9675395,112.7032945,Senior Developer
540,Diverse,Ford,Hal’shany,visa,6.4.0,Belarus,54.2569032,26.0150745,Statistician II
541,Cross-group,Oldsmobile,Juancheng,jcb,9.0.2,China,35.563408,115.510192,Environmental Tech
542,analyzer,Dodge,Malichang,jcb,2.46,China,28.429025,109.500848,Recruiter
543,modular,Toyota,Minggang,diners-club-carte-blanche,8.2,China,32.448742,114.038736,Senior Sales Associate
544,directional,Dodge,Solnechnogorsk,jcb,2.29,Russia,56.176516,36.99786,Chemical Engineer
545,zero defect,Mercury,Safi,jcb,0.8.6,Jordan,31.975951,35.853029,Accountant III
546,intangible,Hyundai,Oncativo,maestro,5.2.8,Argentina,-34.4922897,-58.6799941,Tax Accountant
547,Cross-platform,Pontiac,Jataí,diners-club-us-ca,4.6.3,Brazil,-17.8907823,-51.7176899,Desktop Support Technician
548,secondary,Mazda,Lembanah,switch,0.6.7,Indonesia,-6.8162073,107.6227961,Electrical Engineer
549,homogeneous,Mercury,Hongsihu,jcb,2.2,China,31.654375,120.752481,Senior Cost Accountant
550,Devolved,Mazda,Alebtong,jcb,8.70,Uganda,2.2545773,33.3486147,Senior Quality Engineer
551,approach,Land Rover,Velenje,jcb,7.4.9,Slovenia,46.3499163,15.1107601,General Manager
552,global,Subaru,Muzidian,switch,0.7.8,China,31.188658,115.36761,Geological Engineer
553,Customizable,Mercedes-Benz,Xinan,jcb,0.69,China,34.728584,112.132488,Associate Professor
554,dynamic,Ford,Nōgata,jcb,8.6,Japan,33.7356633,130.7183918,Sales Associate
555,well-modulated,GMC,Jianshan,jcb,0.88,China,46.64635,131.158416,Actuary
556,regional,Mercedes-Benz,Shalkar,diners-club-enroute,2.6,Kazakhstan,47.8313394,59.6188673,GIS Technical Architect
557,database,Lincoln,Sendangagung,china-unionpay,9.40,Indonesia,-7.7280457,110.2325862,Automation Specialist IV
558,moratorium,Mitsubishi,Toledo,china-unionpay,0.16,United States,41.6517775,-83.5016887,Automation Specialist IV
559,data-warehouse,Volvo,Agbor,maestro,0.50,Nigeria,6.2541441,6.2057449,Marketing Assistant
560,pricing structure,Chevrolet,Kiruna,americanexpress,0.24,Sweden,67.8256178,20.3351033,Research Assistant III
561,neutral,Dodge,Nangerang,visa-electron,0.2.6,Indonesia,-6.6970726,107.5357224,Administrative Officer
562,Visionary,Toyota,Putrajaya,bankcard,8.04,Malaysia,2.9329721,101.6259842,Assistant Professor
563,Persistent,Nissan,Pampanito,china-unionpay,9.24,Venezuela,9.4387872,-70.490794,Automation Specialist II
564,firmware,GMC,Mulyorejo,jcb,2.7.7,Indonesia,-7.2723024,112.7837381,Payment Adjustment Coordinator
565,support,Toyota,Tarakaniv,jcb,0.30,Ukraine,50.3838631,25.7085224,Analyst Programmer
566,uniform,Honda,Chitral,maestro,2.1,Pakistan,35.863652,71.789345,Food Chemist
567,matrices,BMW,Uritsk,jcb,6.5.7,Russia,59.82941,30.1775921,Marketing Assistant
568,Programmable,Chevrolet,Ngurenrejo,laser,8.28,Indonesia,-6.6913793,111.0892601,Chemical Engineer
569,intranet,Mazda,Mocajuba,maestro,7.1.3,Brazil,-2.6286135,-49.4059435,Biostatistician I
570,Total,BMW,Cascavel,jcb,5.9.5,Brazil,-24.9288708,-53.4392535,Dental Hygienist
571,Exclusive,Ford,Satuek,jcb,8.1,Thailand,15.2958539,103.2940689,Senior Cost Accountant
572,capacity,Mitsubishi,Hyesan-si,maestro,0.8.8,North Korea,41.387384,128.1744945,Desktop Support Technician
573,Persevering,Saturn,Anolaima,mastercard,0.34,Colombia,4.761738,-74.464018,Librarian
574,pricing structure,Infiniti,Kadubetara,jcb,6.0.6,Indonesia,-6.4594857,105.9141793,Tax Accountant
575,middleware,Acura,Paris 07,americanexpress,0.7.0,France,48.87561,2.302597,Paralegal
576,Stand-alone,Spyker,Kagal’nitskaya,china-unionpay,2.6,Russia,47.082485,39.3745033,Social Worker
577,responsive,Porsche,Belgrade,mastercard,0.61,Serbia,44.786568,20.4489216,Nurse Practicioner
578,orchestration,Subaru,Líbano,jcb,7.1,Colombia,4.920956,-75.063129,Biostatistician II
579,info-mediaries,Porsche,Puerto Barrios,maestro,0.13,Guatemala,15.7318052,-88.5847779,Account Executive
580,core,Jeep,Nanxindian,visa-electron,8.6,China,39.663147,116.669972,Senior Sales Associate
581,executive,Toyota,Narol,jcb,1.0.6,Poland,50.3490504,23.3268124,Office Assistant II
582,systematic,Lincoln,Altavista,maestro,0.5.6,Mexico,19.3468041,-99.2002892,Chief Design Engineer
583,directional,BMW,Gunungkencana,solo,0.31,Indonesia,-6.5627613,106.0669571,Assistant Professor
584,content-based,Audi,Longju,maestro,9.31,China,34.976557,112.090859,Operator
585,Multi-lateral,Lexus,Na Yung,maestro,3.1.8,Thailand,17.9092223,102.220463,Staff Scientist
586,Enterprise-wide,Honda,Örebro,diners-club-carte-blanche,5.7,Sweden,59.260523,15.1978279,Sales Representative
587,policy,Subaru,Nueva Cajamarca,jcb,4.3,Peru,-5.946466,-77.303723,Account Executive
588,Digitized,Lexus,T’aebaek,china-unionpay,0.81,South Korea,37.1640654,128.9855649,Physical Therapy Assistant
589,contextually-based,GMC,Rosh Pinna,jcb,4.13,Israel,32.970422,35.542659,Dental Hygienist
590,bottom-line,Audi,Sremska Mitrovica,solo,0.4.5,Serbia,44.9794968,19.6209662,Chemical Engineer
591,grid-enabled,GMC,Setanggor,diners-club-enroute,5.8,Indonesia,-8.6519695,116.4813482,Systems Administrator IV
592,budgetary management,Acura,IJmuiden,diners-club-carte-blanche,9.5,Netherlands,52.4500648,4.5789114,Teacher
593,hierarchy,Mercury,Dzików Stary,jcb,0.4.8,Poland,51.7976037,19.4547287,Environmental Specialist
594,methodology,Chevrolet,Pacajus,jcb,9.8.7,Brazil,-4.1731846,-38.460945,Pharmacist
595,Multi-layered,Kia,Ojos de Agua,jcb,6.0,Honduras,14.6060279,-87.940833,Librarian
596,local,Mercedes-Benz,Koilás,switch,0.28,Greece,37.4132997,23.125332,Research Nurse
597,hub,GMC,Liufang,jcb,3.00,China,39.958194,116.432774,GIS Technical Architect
598,responsive,BMW,Shuangshi,china-unionpay,3.7,China,31.50199,115.75596,Geologist IV
599,zero administration,Honda,Kudirkos Naumiestis,diners-club-enroute,0.5.3,Lithuania,54.7747231,22.8634338,Account Executive
600,Profit-focused,Geo,Huangbizhuang,visa,4.1,China,38.240246,114.32282,VP Marketing
601,intranet,Oldsmobile,Langob,switch,8.8.0,Philippines,10.3307399,123.8822107,Safety Technician I
602,Team-oriented,Audi,Bŭka,mastercard,0.3.3,Uzbekistan,40.8106238,69.2341133,Computer Systems Analyst II
603,Distributed,Acura,Yubileyny,jcb,3.4,Russia,51.2343307,58.4814355,VP Quality Control
604,client-server,Ford,Ikey,visa-electron,0.41,Russia,55.9100899,37.4008401,GIS Technical Architect
605,open system,Subaru,Gigante,jcb,5.5.3,Colombia,2.384507,-75.542888,Senior Financial Analyst
606,Cloned,Ford,Xaysetha,solo,9.38,Laos,14.8165996,106.9329091,Office Assistant II
607,empowering,Mercedes-Benz,Kalmar,mastercard,6.8.0,Sweden,56.6750878,16.370548,Analog Circuit Design manager
608,neural-net,Volkswagen,Laowobao,mastercard,0.81,China,42.583016,122.445594,Research Assistant I
609,scalable,Subaru,Sobreira,jcb,2.28,Portugal,41.1544623,-7.9159974,General Manager
610,disintermediate,Jaguar,Manning,jcb,7.1,Canada,56.91683,-117.61945,Information Systems Manager
611,neural-net,Ford,Tlogowungu,laser,3.7,Indonesia,-6.6760058,111.0102737,Software Test Engineer II
612,system-worthy,Mercedes-Benz,Knyaginino,jcb,2.6.6,Russia,55.8220827,45.0303408,Financial Analyst
613,Customer-focused,Mazda,El Cantón de San Pablo,jcb,7.0.5,Colombia,-0.2142002,-78.4989722,Automation Specialist III
614,help-desk,Acura,Yangjian,visa-electron,3.37,China,21.857958,111.982232,Financial Analyst
615,motivating,Audi,Dyurtyuli,diners-club-enroute,3.7.5,Russia,55.4787765,54.8619269,Electrical Engineer
616,functionalities,Lincoln,Patria,diners-club-us-ca,0.24,Philippines,14.6334992,120.9685838,Account Coordinator
617,Centralized,Daewoo,Montbéliard,solo,6.0,France,45.417087,-0.302506,Teacher
618,Optional,Chrysler,Kertasari,visa-electron,7.4.4,Indonesia,-7.2760371,107.6925674,Structural Engineer
619,implementation,Ford,Sumurasin,switch,4.7,Indonesia,-6.9774659,110.5806783,Web Designer II
620,groupware,Kia,Idfu,diners-club-carte-blanche,0.2.3,Egypt,24.978548,32.8758199,Recruiting Manager
621,process improvement,Chevrolet,Puor,mastercard,0.45,Indonesia,-8.4963229,123.3766669,Programmer IV
622,bandwidth-monitored,Dodge,Gunziying,maestro,1.4,China,33.6669335,113.1115294,GIS Technical Architect
623,holistic,Aston Martin,Maliang,bankcard,6.37,Indonesia,-7.9666204,112.6326321,Research Nurse
624,bandwidth-monitored,Chevrolet,Albany,china-unionpay,0.61,United States,42.6532844,-73.762495,Director of Sales
625,bandwidth-monitored,Chevrolet,Lubrza,jcb,7.3.8,Poland,52.3048562,15.4108777,Human Resources Assistant IV
626,system engine,Pontiac,Dārayyā,americanexpress,2.4.6,Syria,33.456443,36.2359629,Desktop Support Technician
627,Reactive,Infiniti,Ban Mai,laser,9.49,Thailand,17.9469612,98.8113193,Programmer Analyst IV
628,matrix,Honda,Batatais,americanexpress,1.3.7,Brazil,-20.8933441,-47.5925952,Administrative Officer
629,bifurcated,Suzuki,Clorinda,maestro,0.3.9,Argentina,-34.7942024,-58.2622254,Account Executive
630,moratorium,Volvo,Huilong,jcb,4.49,China,30.304377,103.686294,Internal Auditor
631,bandwidth-monitored,Acura,Sami,switch,1.9.0,Gambia,13.5923622,-14.6354631,Computer Systems Analyst II
632,application,Land Rover,Kunów,mastercard,0.7.6,Poland,50.9614392,21.2804169,Administrative Officer
633,Multi-channelled,Maserati,Vinha,laser,9.43,Portugal,41.4292615,-8.1757379,Accounting Assistant III
634,national,Toyota,Punat,maestro,0.86,Croatia,45.020739,14.6315962,Senior Quality Engineer
635,leading edge,Mercedes-Benz,Meniko,bankcard,0.96,Cyprus,35.1148773,33.1435877,Payment Adjustment Coordinator
636,Integrated,Chevrolet,Beishan,diners-club-carte-blanche,3.08,China,28.39895,113.02064,Safety Technician III
637,zero defect,MINI,Jatirogo,jcb,0.22,Indonesia,-6.8586226,111.642224,Operator
638,Customer-focused,Saab,Huili Chengguanzhen,solo,0.6.6,China,26.662155,102.242653,Mechanical Systems Engineer
639,foreground,Nissan,Tembeling,visa-electron,7.00,Indonesia,1.008763,104.470164,Actuary
640,methodical,Chrysler,Petit Valley,jcb,8.5,Trinidad and Tobago,10.701232,-61.5471829,Sales Representative
641,User-friendly,Nissan,Leon,jcb,7.1.9,Spain,42.660251,-5.5722297,Occupational Therapist
642,Upgradable,Chevrolet,São Francisco do Sul,visa-electron,7.8.0,Brazil,-26.2586271,-48.6349331,Recruiting Manager
643,demand-driven,Panoz,Chaoyang,switch,9.65,China,41.57365,120.4493879,Social Worker
644,solution-oriented,Nissan,Milano,americanexpress,9.3.6,Italy,45.4972764,9.203123,Assistant Manager
645,dynamic,Mitsubishi,Zghartā,bankcard,0.4.9,Lebanon,34.3963158,35.8958444,Cost Accountant
646,Multi-layered,Suzuki,Cheping,jcb,2.02,China,34.962575,105.480493,VP Product Management
647,needs-based,Mercury,Vitoria-Gasteiz,mastercard,0.45,Spain,42.8591137,-2.6844071,Administrative Assistant II
648,toolset,Volvo,Razan,jcb,0.9.6,Iran,35.3913832,49.0337401,Internal Auditor
649,foreground,Volkswagen,Lidköping,jcb,0.4.1,Sweden,58.3721026,13.1402383,Senior Quality Engineer
650,website,GMC,Purong,jcb,0.9.9,China,21.982137,112.80173,Professor
651,Streamlined,Eagle,Nobinobi,china-unionpay,0.5.6,Indonesia,-9.833763,124.458641,Civil Engineer
652,implementation,Land Rover,Gebre Guracha,jcb,5.88,Ethiopia,9.7986027,38.4271461,Research Associate
653,Face to face,Mazda,Kelaniya,americanexpress,0.1.6,Sri Lanka,6.9782137,79.9115522,Financial Analyst
654,emulation,Maserati,Hova,switch,9.03,Sweden,58.8578776,14.2134536,Paralegal
655,Configurable,Toyota,Michałów,jcb,3.1.1,Poland,50.4897179,20.449178,Automation Specialist II
656,Business-focused,Pontiac,Stare Pole,jcb,5.73,Poland,54.0471273,19.2012887,Project Manager
657,5th generation,Chrysler,Yanqi,jcb,8.5,China,42.059759,86.574067,Data Coordiator
658,data-warehouse,Ford,Tukuyu,jcb,9.9.9,Tanzania,-9.2538202,33.6483471,Civil Engineer
659,background,Kia,Hörby,visa-electron,0.89,Sweden,55.8346942,13.6546035,Nuclear Power Engineer
660,encoding,Toyota,Węgorzyno,jcb,0.76,Poland,53.54091,15.55963,Dental Hygienist
661,leading edge,Maserati,Zhongchuan,mastercard,6.5.6,China,36.515,103.62,Pharmacist
662,functionalities,Pontiac,Oklahoma City,jcb,2.0,United States,35.6131551,-97.6385368,Senior Editor
663,alliance,Jaguar,Namangan Shahri,maestro,0.46,Uzbekistan,41.005341,71.236153,Senior Sales Associate
664,Ameliorated,Mitsubishi,Sollebrunn,jcb,0.15,Sweden,58.1214207,12.6443729,Junior Executive
665,asynchronous,Toyota,Quinipot,jcb,5.5,Philippines,7.18028,122.22028,Account Representative III
666,interface,Ford,Mehtar Lām,jcb,0.37,Afghanistan,34.6672527,70.2117178,Graphic Designer
667,Business-focused,Acura,Longhua,visa-electron,8.41,China,22.656408,114.019351,Accountant III
668,responsive,Dodge,Dinājpur,diners-club-us-ca,9.7.8,Bangladesh,25.6279123,88.6331758,Clinical Specialist
669,scalable,Porsche,Wonocoyo Utara,maestro,2.65,Indonesia,-8.2517133,111.4365318,GIS Technical Architect
670,fault-tolerant,Mercedes-Benz,Estrada,maestro,9.89,Portugal,41.2496914,-7.948491,Nuclear Power Engineer
671,budgetary management,Chevrolet,Carrasqueira,switch,0.9.9,Portugal,39.7575072,-8.7329478,Web Developer I
672,intranet,Ford,Ziguinchor,visa,0.2.6,Senegal,12.5641479,-16.2639825,Staff Scientist
673,Operative,Porsche,Riah,jcb,1.11,Morocco,33.1556108,-7.3860994,Database Administrator III
674,Virtual,Plymouth,Shangsha,jcb,0.40,China,28.228209,112.938814,Accountant III
675,zero tolerance,Ford,Huangsha,jcb,0.21,China,23.110052,113.240664,Professor
676,Focused,Chevrolet,Jinling,jcb,0.10,China,32.060255,118.796877,Senior Developer
677,Implemented,Subaru,Makapanstad,visa-electron,0.7.8,South Africa,-25.250202,28.1331378,Human Resources Manager
678,empowering,GMC,San Pedro de Ycuamandiyú,jcb,0.9.7,Paraguay,-24.0863273,-57.0844094,GIS Technical Architect
679,5th generation,Honda,Gouping,solo,0.12,China,32.7231719,110.060938,Web Developer III
680,client-driven,Chevrolet,Sidaurip,instapayment,3.8.2,Indonesia,-7.690753,109.2861268,Food Chemist
681,installation,Bentley,Kafr az Zayyāt,jcb,0.7.6,Egypt,30.8254669,30.8139165,Senior Sales Associate
682,concept,Honda,Ciranca Satu,jcb,5.08,Indonesia,-7.03126,108.28306,Quality Engineer
683,optimal,Isuzu,Piancheng,diners-club-carte-blanche,1.3,China,33.347316,120.16366,Graphic Designer
684,Expanded,Porsche,Kubachi,china-unionpay,0.39,Russia,42.08435,47.6041857,Associate Professor
685,functionalities,GMC,Desa Borogojol,mastercard,9.9,Indonesia,-7.034968,108.1725154,Research Assistant I
686,Vision-oriented,Lotus,Bansko,jcb,5.12,Bulgaria,41.8404241,23.485653,Cost Accountant
687,standardization,Suzuki,Pedro Sánchez,bankcard,0.58,Dominican Republic,18.5056182,-69.8487452,Senior Sales Associate
688,Extended,Chevrolet,Kembang,laser,0.5.2,Indonesia,-6.4712737,110.8171082,Paralegal
689,Enhanced,Mitsubishi,Horní Jiřetín,americanexpress,0.82,Czech Republic,50.5702189,13.5166536,Assistant Media Planner
690,conglomeration,Cadillac,Samdrup Jongkhar,jcb,2.2,Bhutan,26.8035682,91.5039207,General Manager
691,Distributed,GMC,Kanie,diners-club-carte-blanche,1.1.6,Japan,35.0695474,136.7835269,VP Accounting
692,Secured,Ford,Zopilotepe,mastercard,0.2.4,Honduras,14.5544751,-86.2901225,Nurse
693,flexibility,Volkswagen,Caçapava do Sul,jcb,0.4.2,Brazil,-30.5148445,-53.4832383,Analog Circuit Design manager
694,Distributed,GMC,San Luis,mastercard,5.4.0,Guatemala,14.8801218,-91.4586872,VP Quality Control
695,support,Honda,Markaz-e Ḩukūmat-e Darwēshān,jcb,0.67,Afghanistan,31.13232,64.1934,Business Systems Development Analyst
696,scalable,Nissan,Itatinga,jcb,2.8,Brazil,-23.1067087,-48.6123867,General Manager
697,Seamless,Maserati,Terezín,bankcard,6.6,Czech Republic,50.0099822,17.0336959,Chief Design Engineer
698,contextually-based,BMW,Wangshi,diners-club-enroute,2.3,China,39.9810986,116.4217216,Software Consultant
699,Switchable,GMC,Sumqayıt,solo,0.3.5,Azerbaijan,40.5854765,49.6317411,Accountant III
700,Mandatory,Ford,Garoua Boulaï,china-unionpay,2.8.2,Cameroon,5.8901373,14.5480484,VP Accounting
701,leading edge,Volvo,Dimiao,jcb,0.7.4,Philippines,9.6037331,124.1518808,Software Engineer I
702,array,Subaru,Dalmeny,americanexpress,0.95,Canada,52.33339,-106.76792,Recruiter
703,value-added,Mitsubishi,Wangfu,jcb,0.84,China,38.6026034,-90.4365807,Nuclear Power Engineer
704,knowledge user,Pontiac,Rouen,jcb,2.82,France,47.8225694,0.3908219,Editor
705,Virtual,Dodge,Habry,diners-club-carte-blanche,0.5.8,Czech Republic,49.7578885,15.4826417,Compensation Analyst
706,Polarised,Chevrolet,Bakungan,jcb,6.35,Indonesia,-8.2,114.5,Pharmacist
707,heuristic,Pontiac,Vodstroy,diners-club-us-ca,7.4.7,Russia,54.8493584,50.7951517,Assistant Professor
708,mobile,Ford,Mama,jcb,0.24,Russia,58.3104915,112.8975082,Project Manager
709,toolset,Chevrolet,Särevere,bankcard,0.1.2,Estonia,58.7859889,25.4275605,VP Product Management
710,Vision-oriented,Toyota,Bayanbulag,visa-electron,0.70,Mongolia,46.801046,98.0983756,Operator
711,Fundamental,Cadillac,Peoria,jcb,6.6,United States,33.7868136,-112.28609,Recruiter
712,Seamless,Pontiac,Houmt Souk,jcb,8.2.7,Tunisia,33.8787981,10.850791,Accountant III
713,actuating,BMW,Nafada,mastercard,5.0,Nigeria,11.0876868,11.207047,Speech Pathologist
714,Synergized,Subaru,Carcassonne,diners-club-us-ca,0.51,France,44.346784,5.8855505,Statistician III
715,instruction set,Chevrolet,La Tour-du-Pin,jcb,1.2.4,France,45.5423201,5.449605,Account Executive
716,Multi-tiered,Jaguar,La Coipa,jcb,0.2.2,Peru,-5.2755737,-79.1048501,Graphic Designer
717,leading edge,Mazda,San Cristóbal,jcb,0.6.5,Venezuela,7.7713572,-72.2261466,Design Engineer
718,Upgradable,Chrysler,Al ‘Azīzīyah,maestro,6.4.4,Iraq,32.9107075,45.0629902,Payment Adjustment Coordinator
719,complexity,Pontiac,Oula Xiuma,diners-club-carte-blanche,2.68,China,34.240577,101.123729,Financial Analyst
720,Mandatory,Lincoln,Igcocolo,jcb,0.3.4,Philippines,10.711091,122.3254206,Developer III
721,Virtual,Nissan,Cajati,jcb,0.8.9,Brazil,-24.7300224,-48.108265,Chief Design Engineer
722,next generation,Ford,Ya’ergenchu,maestro,7.81,China,47.74603,122.60809,Health Coach III
723,clear-thinking,Ford,Valence,jcb,3.20,France,44.9280296,4.8932938,Geologist II
724,demand-driven,Cadillac,Kedungkrajan,jcb,0.2.7,Indonesia,-7.504714,112.358062,Tax Accountant
725,content-based,Dodge,Karangranjong,instapayment,0.17,Indonesia,-5.0768453,105.0177539,Research Assistant III
726,impactful,Toyota,Xiahong,diners-club-enroute,5.3.5,China,36.730837,104.785208,Senior Quality Engineer
727,Configurable,Lexus,Stockholm,jcb,2.1,Sweden,59.3125021,18.0760798,Registered Nurse
728,toolset,Pontiac,Banho e Carvalhosa,jcb,0.1.6,Portugal,41.2371977,-8.1638851,Compensation Analyst
729,coherent,BMW,Nemours,maestro,4.5.0,France,48.2678882,2.7122802,Computer Systems Analyst III
730,capability,Ford,Baitoa,diners-club-enroute,5.2,Dominican Republic,19.309169,-70.6977162,Budget/Accounting Analyst III
731,Versatile,GMC,Shigu,jcb,0.94,China,27.522725,112.507849,Legal Assistant
732,explicit,Mercury,Azara,diners-club-carte-blanche,0.30,Argentina,-34.7008122,-58.7034275,Desktop Support Technician
733,asynchronous,Mercury,Luleå,jcb,0.8.4,Sweden,65.5759908,22.1917204,Account Coordinator
734,adapter,Chevrolet,Manabo,bankcard,3.63,Philippines,17.3911787,120.7295465,Project Manager
735,circuit,Maserati,La Paloma,maestro,8.08,Uruguay,-34.6559151,-54.1830076,Programmer Analyst I
736,directional,Toyota,Zelenogradsk,maestro,0.8.1,Russia,54.9562342,20.4747022,Social Worker
737,info-mediaries,Mazda,Magallanes,jcb,3.17,Philippines,14.5624842,121.0482871,VP Quality Control
738,explicit,Audi,Xintun,jcb,0.27,China,41.837693,123.981229,Research Associate
739,pricing structure,Mazda,Thessalon,jcb,0.91,Canada,46.25006,-83.5666,Software Consultant
740,function,Mercedes-Benz,Żabia Wola,jcb,6.8,Poland,52.0008866,20.6716007,Recruiter
741,Proactive,Jeep,Hong Kong,bankcard,4.6.8,Hong Kong,22.396428,114.109497,Technical Writer
742,Inverse,Mazda,Velyki Sorochyntsi,switch,2.7,Ukraine,50.0198084,33.9416726,Assistant Professor
743,homogeneous,Mazda,Lahad Datu,diners-club-carte-blanche,9.81,Malaysia,5.0281872,118.3157161,Assistant Professor
744,motivating,Toyota,Štoky,maestro,0.2.6,Czech Republic,49.5024864,15.5886328,Software Test Engineer III
745,national,Acura,Panggulan,jcb,6.7,Indonesia,-6.4331238,106.7563363,Chief Design Engineer
746,application,Subaru,Zeguo,china-unionpay,0.19,China,28.498966,121.362315,Food Chemist
747,interactive,Lincoln,Ujmisht,jcb,5.66,Albania,41.9238499,20.3755648,Administrative Officer
748,logistical,Ford,Yangqing,jcb,0.8.5,China,40.456951,115.974848,Physical Therapy Assistant
749,definition,Mercury,Niugan,visa-electron,9.37,Philippines,14.26297,121.1281849,Registered Nurse
750,approach,Dodge,Kuala Lumpur,jcb,7.1,Malaysia,3.1523104,101.7178316,Environmental Tech
751,Synergized,Subaru,Paragominas,solo,9.59,Brazil,-3.0050767,-47.3535246,Legal Assistant
752,Intuitive,Bentley,Faleula,china-unionpay,0.3.9,Samoa,-13.7973358,-171.8319995,Data Coordiator
753,Operative,BMW,Huanggang,jcb,0.91,China,30.453667,114.872199,Director of Sales
754,paradigm,Dodge,Bridgewater,diners-club-carte-blanche,0.2.9,Canada,44.3710708,-64.5210039,Software Test Engineer II
755,user-facing,Dodge,San Jacinto,jcb,7.8.3,Colombia,9.834832,-75.120521,Geologist IV
756,moderator,Volkswagen,Igurubi,americanexpress,7.72,Tanzania,-4,33.7,Director of Sales
757,Integrated,Volkswagen,Rendui,jcb,4.0.9,China,30.073805,89.108299,Professor
758,model,Audi,Totness,laser,0.1.4,Suriname,5.8719379,-56.3320773,Occupational Therapist
759,Secured,Toyota,Saripin,jcb,0.3.5,Indonesia,-4.4036778,119.6043972,Senior Developer
760,clear-thinking,Audi,Rungis,mastercard,4.4.0,France,48.7700185,2.3508225,Computer Systems Analyst IV
761,collaboration,GMC,Khvorostyanka,jcb,9.8.9,Russia,52.6052298,48.9659955,Junior Executive
762,alliance,Mercury,Nizhniy Kurkuzhin,jcb,0.91,Russia,43.7041519,43.3264539,General Manager
763,Enhanced,Mercedes-Benz,Isiolo,americanexpress,8.18,Kenya,0.355636,37.5833061,Community Outreach Specialist
764,explicit,Toyota,Pasirhuni,laser,2.10,Indonesia,-7.0970638,107.5771444,Pharmacist
765,Up-sized,Mitsubishi,Delta del Tigre,diners-club-carte-blanche,0.9.2,Uruguay,-34.7611766,-56.3628409,Systems Administrator II
766,Optimized,Nissan,Neyvo-Rudyanka,jcb,0.25,Russia,57.3356106,60.1281665,Senior Financial Analyst
767,24/7,Hyundai,Rosaspata,laser,6.6.2,Peru,-15.24014,-69.527634,Editor
768,throughput,Hyundai,Barrhead,switch,0.68,Canada,54.1187723,-114.3954066,Account Executive
769,tertiary,GMC,Huili,mastercard,3.2.5,China,26.655026,102.244683,Clinical Specialist
770,customer loyalty,Mitsubishi,Gugut,jcb,0.9.1,Indonesia,-8.1807254,113.6055854,Senior Cost Accountant
771,emulation,Plymouth,Cruz Alta,diners-club-carte-blanche,0.14,Argentina,-34.6126135,-58.5321306,Analog Circuit Design manager
772,system-worthy,Audi,Maofan,maestro,2.1.3,China,31.829323,119.977286,Web Developer II
773,Down-sized,Land Rover,Garland,instapayment,7.2.6,United States,32.8565219,-96.6038258,Social Worker
774,Cloned,Honda,Lincoln,diners-club-us-ca,4.5,United States,40.804574,-96.6157192,Accounting Assistant IV
775,Triple-buffered,GMC,Comapa,jcb,6.90,Guatemala,14.113818,-89.917591,Senior Quality Engineer
776,protocol,Audi,Buutuo,americanexpress,9.2,Liberia,6.8251698,-8.341016,Tax Accountant
777,installation,GMC,Batujaran,maestro,4.5,Indonesia,-6.9144512,107.4970353,Administrative Assistant I
778,contextually-based,Honda,Oslo,jcb,0.45,Norway,59.9047305,10.7670564,GIS Technical Architect
779,definition,Mercedes-Benz,Dingyan,jcb,6.0.2,China,26.5836,104.857063,Internal Auditor
780,Inverse,Saab,Baishigou,maestro,2.6.6,China,22.533583,113.968498,Nurse Practicioner
781,radical,Kia,Dasi,visa-electron,6.92,China,39.021046,117.2401593,Administrative Officer
782,Intuitive,Toyota,Braunschweig,jcb,2.9.8,Germany,52.2802311,10.5390217,VP Quality Control
783,Digitized,Lexus,Ruokolahti,maestro,7.6,Finland,61.8628073,29.2775676,Software Consultant
784,solution-oriented,Honda,Sheshory,mastercard,0.68,Ukraine,48.3162239,24.9330262,Clinical Specialist
785,matrix,Pontiac,Prinza,jcb,0.5.6,Philippines,14.2038203,121.1457666,Media Manager I
786,discrete,Volvo,Mehrābpur,diners-club-carte-blanche,7.1,Pakistan,27.100102,68.3711064,Human Resources Assistant I
787,migration,Jeep,Gizałki,maestro,4.2.0,Poland,52.0610443,17.8504238,VP Quality Control
788,Seamless,Infiniti,Itaberaí,diners-club-enroute,2.2.9,Brazil,-16.0222492,-49.8004866,Actuary
789,benchmark,Mitsubishi,Václavovice,jcb,0.8.6,Czech Republic,49.794137,18.1457156,Account Representative I
790,installation,Volkswagen,New York City,jcb,2.9,United States,40.708873,-74.0093553,Physical Therapy Assistant
791,multi-state,BMW,Krajan Karanganyar,jcb,9.44,Indonesia,-6.8243672,110.7880536,Senior Sales Associate
792,scalable,GMC,Donja Mahala,jcb,0.3.0,Bosnia and Herzegovina,45.0783589,18.6758688,Teacher
793,Automated,Mercedes-Benz,Austin,jcb,9.6.7,United States,30.2915328,-97.7688358,Environmental Specialist
794,strategy,Hyundai,Yunzhong,jcb,7.49,China,40.0820173,113.2828702,Automation Specialist II
795,Automated,Infiniti,Qingshi,americanexpress,0.4.6,China,30.0781136,102.7319467,Senior Editor
796,Versatile,Kia,Suklayin,diners-club-carte-blanche,1.6.1,Philippines,15.7571229,121.549796,Accounting Assistant IV
797,User-friendly,Lincoln,Mae Lan,jcb,3.6.3,Thailand,6.647477,101.2353772,Web Designer II
798,discrete,Mazda,Tlogosari,jcb,8.16,Indonesia,-8.0344803,113.9655419,Geological Engineer
799,Managed,Maserati,Jianggezhuang,mastercard,0.8.7,China,40.2251411,116.7810211,Senior Sales Associate
800,Vision-oriented,Chevrolet,Kīevka,switch,9.3,Kazakhstan,50.2603928,71.5485944,Software Test Engineer I
801,product,Lincoln,Semenivka,jcb,0.4.9,Ukraine,52.1814619,32.583994,Chemical Engineer
802,capability,Chrysler,Linjiang,jcb,1.6.0,China,41.811979,126.918087,Food Chemist
803,Universal,Mercedes-Benz,Stavropol’,jcb,9.7,Russia,44.9544161,42.0328581,Mechanical Systems Engineer
804,User-centric,BMW,Kaniów,jcb,1.4,Poland,50.9872632,20.6630795,Assistant Professor
805,info-mediaries,Dodge,Guajará Mirim,diners-club-enroute,4.7,Brazil,-10.789321,-65.3301049,Data Coordiator
806,Automated,Pontiac,Bochum,diners-club-carte-blanche,0.28,Germany,51.449197,7.1957779,Graphic Designer
807,even-keeled,Cadillac,Groningen,diners-club-enroute,0.6.6,Netherlands,53.2231057,6.5319506,Web Developer I
808,Focused,Pontiac,Potosí,solo,0.4.0,Colombia,0.6793997,-77.355413,Paralegal
809,context-sensitive,Chevrolet,Juvisy-sur-Orge,maestro,8.6,France,48.6910817,2.3741324,Accountant IV
810,local area network,Aston Martin,Si Prachan,laser,7.7,Thailand,14.6462828,100.1479182,Teacher
811,Decentralized,Ford,Kosów Lacki,china-unionpay,4.2.8,Poland,52.596028,22.1470031,Dental Hygienist
812,multi-state,Subaru,Köyliö,diners-club-enroute,0.40,Finland,61.0678389,22.5515075,VP Marketing
813,bottom-line,Cadillac,Verkhnyaya Tura,visa-electron,9.93,Russia,58.3634707,59.8100344,Senior Editor
814,motivating,Pontiac,Tierp,jcb,0.86,Sweden,60.3448681,17.4966539,Graphic Designer
815,Networked,Audi,Sakaidechō,laser,0.13,Japan,34.3103535,133.8255351,Marketing Manager
816,Quality-focused,Cadillac,Lanjaghbyur,visa-electron,2.7.7,Armenia,40.2706832,45.135943,Nurse Practicioner
817,next generation,Dodge,Libei,jcb,6.62,China,23.2252,113.148534,Web Designer II
818,bifurcated,Dodge,Zoumaling,diners-club-carte-blanche,0.1.4,China,30.203152,115.429626,Accountant I
819,Mandatory,Land Rover,Tuanai,diners-club-us-ca,9.9,Indonesia,-6.223224,106.825714,Senior Quality Engineer
820,foreground,Porsche,Mokil,mastercard,0.3.1,Micronesia,6.6650328,159.7540106,Technical Writer
821,interactive,Jaguar,Vasylkiv,maestro,0.15,Ukraine,50.1770891,30.3196385,Food Chemist
822,multimedia,Porsche,Eskilstuna,mastercard,7.42,Sweden,59.3703069,16.5529968,VP Accounting
823,Robust,GMC,Kotido,jcb,5.7,Uganda,3.0062022,34.1114621,Associate Professor
824,intranet,Subaru,Chengdong,solo,7.55,China,36.599744,101.803717,Compensation Analyst
825,internet solution,Hyundai,Saint Louis,maestro,6.61,United States,38.6206914,-90.4408037,Programmer III
826,leverage,Mercedes-Benz,Los Angeles,laser,6.0,United States,34.0578814,-118.3096648,Accountant III
827,orchestration,Ford,Maoqitun,jcb,3.4,China,44.760391,127.082675,Structural Engineer
828,artificial intelligence,Chevrolet,Cikupa,jcb,1.89,Indonesia,-6.2167736,106.5230542,General Manager
829,circuit,Mercedes-Benz,Cimişlia,jcb,4.96,Moldova,46.5240685,28.7769351,Senior Quality Engineer
830,solution-oriented,Mitsubishi,Huangtian,mastercard,0.3.0,China,22.636828,113.814606,Automation Specialist I
831,Focused,GMC,Altamira,jcb,6.2,Brazil,-3.1986664,-52.2104006,Engineer IV
832,Ergonomic,Mercedes-Benz,San Miguel,jcb,8.0.5,Philippines,8.955271,126.009711,Community Outreach Specialist
833,Multi-tiered,Suzuki,Budziszewice,jcb,6.63,Poland,51.667293,19.93565,Cost Accountant
834,firmware,Cadillac,Neẖalim,mastercard,4.9,Israel,32.058597,34.9136,Developer II
835,collaboration,Toyota,Gaoqiao,jcb,1.39,China,31.364902,108.249509,Sales Associate
836,bi-directional,Lexus,Saint-Pierre,mastercard,9.5,Reunion,-21.1041295,55.2484176,VP Accounting
837,multi-state,Jeep,São Joaquim,jcb,9.99,Brazil,-28.292455,-49.9375873,Speech Pathologist
838,Networked,Mitsubishi,Cabugao,mastercard,0.8.3,Philippines,17.8200009,120.4544261,Paralegal
839,radical,Dodge,Jamālpur,bankcard,7.8.0,Bangladesh,25.0830926,89.7853218,Paralegal
840,archive,Pontiac,San Antonio,jcb,7.1.2,United States,29.4143476,-98.3910127,Information Systems Manager
841,moderator,Isuzu,Jiangcun,diners-club-carte-blanche,1.7,China,22.579117,113.081508,Paralegal
842,forecast,Dodge,Krajenka,diners-club-enroute,1.3.3,Poland,53.29667,16.99062,Staff Scientist
843,Robust,Pontiac,Oslo,visa,0.97,Norway,59.8913759,10.680635,Web Developer IV
844,hardware,Lincoln,Ishkhoy-Yurt,diners-club-carte-blanche,2.81,Russia,43.2150141,46.3893765,Paralegal
845,help-desk,Mercedes-Benz,Dulce Nombre de Culmí,mastercard,7.6.5,Honduras,15.0796303,-85.5586368,Account Coordinator
846,maximized,Volvo,San Vicente de Moravia,jcb,4.7,Costa Rica,9.9748039,-84.0322316,Social Worker
847,dedicated,Volvo,Amaigbo,bankcard,2.2.5,Nigeria,5.7179173,7.0821162,Accountant II
848,eco-centric,Lexus,Gao,jcb,7.3,Mali,16.2639807,-0.0279867,Marketing Manager
849,customer loyalty,BMW,Qili,jcb,0.24,China,30.8783105,120.0907688,Developer III
850,Profound,Pontiac,Gangu Chengguanzhen,jcb,8.99,China,34.73564,105.32632,Office Assistant III
851,budgetary management,Isuzu,Palmas,china-unionpay,0.9.0,Brazil,-10.249091,-48.3242858,Product Engineer
852,human-resource,Lincoln,Borek,jcb,5.2,Poland,50.0055345,20.5122334,Senior Financial Analyst
853,mobile,Mitsubishi,Binangun,jcb,8.6.8,Indonesia,-8.2127777,112.3456985,VP Accounting
854,complexity,Toyota,Diadema,mastercard,2.6.2,Brazil,-23.6818396,-46.620967,Environmental Specialist
855,application,Toyota,Bungalaleng,mastercard,0.37,Indonesia,-8.1916,123.7529,Budget/Accounting Analyst III
856,explicit,Peugeot,Tuofeng,maestro,0.6.8,China,24.936417,98.482754,Associate Professor
857,Object-based,Mercedes-Benz,Göteborg,jcb,1.3.8,Sweden,57.708657,12.0447568,Software Engineer II
858,non-volatile,Honda,Yuxin,mastercard,5.2.6,China,30.66974,120.79411,GIS Technical Architect
859,success,Mercedes-Benz,Katabu,americanexpress,0.2.9,Indonesia,-4.9333,122.5167,Developer II
860,concept,Nissan,Bistrica pri Tržiču,china-unionpay,0.4.2,Slovenia,46.3583447,14.2930813,Statistician II
861,hardware,Land Rover,Néa Kíos,mastercard,8.0,Greece,37.5874845,22.7447696,Engineer I
862,Customer-focused,GMC,Lulindi,laser,0.72,Tanzania,-9.9876076,39.6982485,Structural Analysis Engineer
863,stable,Cadillac,Qiaodi,maestro,9.6.0,China,34.600701,108.722463,Marketing Assistant
864,utilisation,Ford,San Martin,bankcard,8.8,Mexico,19.5042619,-98.8797029,Senior Sales Associate
865,software,Scion,Fort Portal,jcb,0.5.1,Uganda,0.6546257,30.2801166,Recruiter
866,emulation,Volvo,Krajan Suco,jcb,4.2.1,Indonesia,-8.2672,113.7496,Administrative Assistant III
867,even-keeled,Mercury,Goyty,jcb,5.3,Russia,43.1627276,45.6198851,Assistant Media Planner
868,Focused,Mazda,Tassin-la-Demi-Lune,visa-electron,9.03,France,45.764339,4.768427,Marketing Assistant
869,forecast,Hyundai,Araal,jcb,1.6,Philippines,8.1154648,122.6663002,Staff Accountant III
870,toolset,Chevrolet,Biscucuy,visa,2.92,Venezuela,9.3595215,-69.9877879,Legal Assistant
871,Open-source,Toyota,Joyabaj,jcb,0.7.5,Guatemala,14.9941724,-90.8072101,Budget/Accounting Analyst II
872,definition,Volkswagen,Phra Nakhon Si Ayutthaya,mastercard,3.0,Thailand,14.4403155,100.383479,Geologist II
873,demand-driven,Infiniti,Huangwei,jcb,7.2.8,China,30.6357285,116.5715868,Social Worker
874,Extended,Acura,Nkwerre,china-unionpay,2.8.8,Nigeria,5.7647948,7.0982581,Registered Nurse
875,Grass-roots,Toyota,Sępólno Krajeńskie,diners-club-enroute,3.6,Poland,53.4513,17.5316201,Staff Scientist
876,approach,Pontiac,Krajan Tekung,switch,0.50,Indonesia,-8.2307484,113.2998705,Graphic Designer
877,challenge,Jaguar,Serang,mastercard,0.70,Indonesia,-6.1103661,106.1639749,Administrative Assistant II
878,Synergized,Aston Martin,Vimmerby,jcb,0.28,Sweden,57.6152326,16.0320901,Software Consultant
879,5th generation,Mercedes-Benz,Banatsko Veliko Selo,visa,0.36,Serbia,45.8266432,20.5937585,VP Quality Control
880,tangible,BMW,Uruzgān,mastercard,0.7.3,Afghanistan,32.9271287,66.1415263,Mechanical Systems Engineer
881,directional,Chevrolet,Sasnovy Bor,laser,3.0,Belarus,52.5177754,29.5970434,Senior Editor
882,array,Mercedes-Benz,São Martinho do Campo,diners-club-enroute,3.6,Portugal,41.3593636,-8.3718954,Quality Engineer
883,needs-based,Bentley,Sunzhen,jcb,6.87,China,22.543096,114.057865,Engineer II
884,hardware,Kia,Rizal,instapayment,1.95,Philippines,14.5665378,121.1092186,Sales Associate
885,parallelism,Oldsmobile,Mella,china-unionpay,0.88,Dominican Republic,18.4305759,-69.9663985,Computer Systems Analyst IV
886,explicit,Lamborghini,Gapyeong,mastercard,0.7.9,South Korea,37.8315403,127.5098827,Account Representative IV
887,5th generation,Chrysler,Erdaocha,jcb,2.74,China,42.871502,127.501873,Analyst Programmer
888,local area network,Ford,Cruz Alta,americanexpress,4.3.4,Argentina,-34.6126135,-58.5321306,Safety Technician I
889,functionalities,Ford,Alua,instapayment,0.43,Philippines,15.3097361,120.8940375,Structural Engineer
890,Expanded,Toyota,Pedome,mastercard,6.37,Portugal,41.414967,-8.3881947,Developer II
891,help-desk,Porsche,Panacan,jcb,4.8.7,Philippines,9.2559967,118.4057103,Administrative Assistant I
892,capacity,Volkswagen,Changshan,china-unionpay,4.48,China,28.901462,118.511235,Structural Analysis Engineer
893,Multi-layered,Lexus,Puerto San José,instapayment,2.45,Guatemala,13.918464,-90.872553,Budget/Accounting Analyst I
894,adapter,Chevrolet,Čačak,instapayment,9.41,Serbia,43.8914144,20.3501652,Software Engineer III
895,Face to face,Mercury,Shanghudi,diners-club-enroute,0.6.5,China,31.2303904,121.4737021,Financial Advisor
896,firmware,Mitsubishi,Karangbayat,jcb,0.17,Indonesia,-8.0663604,113.4418908,Biostatistician II
897,Streamlined,Suzuki,Magong,diners-club-us-ca,0.1.7,China,33.0524588,-96.795855,Senior Editor
898,Extended,Infiniti,Togu,mastercard,7.9,Indonesia,1.1704451,99.2037508,Recruiter
899,Streamlined,Audi,Maltahöhe,instapayment,1.2,Namibia,-24.8380587,16.9801346,Sales Representative
900,Graphical User Interface,Cadillac,Karang,jcb,8.6.6,Indonesia,-6.2691666,106.05,Sales Associate
901,mission-critical,Suzuki,Sydney,jcb,9.0.0,Australia,-33.8989712,151.2149792,GIS Technical Architect
902,Up-sized,Saab,Luisiana,jcb,5.9.4,Philippines,14.1975137,121.5570313,Software Test Engineer I
903,core,BMW,Gajah,diners-club-international,0.6.2,Indonesia,-6.8897321,110.7480064,Automation Specialist IV
904,static,Cadillac,Hirara,jcb,0.63,Japan,24.8051928,125.2789544,Junior Executive
905,Virtual,Volkswagen,Chengbei,americanexpress,1.4,China,36.650038,101.766228,Pharmacist
906,analyzing,Mazda,Manay,china-unionpay,2.3,Philippines,13.559532,123.2715608,Recruiter
907,clear-thinking,GMC,Bukid,jcb,0.30,Philippines,14.6921469,120.9617614,Recruiter
908,Customer-focused,Mercedes-Benz,Doroslovo,jcb,9.1,Serbia,45.5998896,19.1802788,Account Executive
909,solution,Volvo,Kŭrdzhali,visa-electron,4.28,Bulgaria,41.7220316,25.3726469,Information Systems Manager
910,well-modulated,Lexus,Trosa,visa-electron,2.9,Sweden,58.8946515,17.5331351,Systems Administrator I
911,workforce,BMW,Tambulig,mastercard,3.29,Philippines,8.0693651,123.535497,Operator
912,Customer-focused,Infiniti,Delingha,diners-club-enroute,0.30,China,37.369435,97.360984,Biostatistician IV
913,Robust,Volvo,Rouen,jcb,6.6,France,49.4378273,1.0974675,Sales Associate
914,Integrated,Toyota,Weifang,bankcard,3.3,China,36.706962,119.161748,VP Accounting
915,secondary,Mercedes-Benz,Fengshou,diners-club-carte-blanche,6.4,China,45.7652358,126.6379525,Assistant Manager
916,hybrid,Chevrolet,Ondores,jcb,7.87,Peru,-11.06612,-76.158401,Quality Engineer
917,Secured,Plymouth,Cayara,bankcard,7.7.0,Peru,-13.796667,-73.988056,Account Coordinator
918,systematic,Lamborghini,Kónitsa,china-unionpay,9.4.5,Greece,40.0480719,20.7528378,Geological Engineer
919,Inverse,Aston Martin,Banjar Sandinggianyar,jcb,0.6.9,Indonesia,-8.4837797,115.279613,VP Accounting
920,complexity,Chevrolet,Bruzual,jcb,7.3,Venezuela,8.047281,-69.3339418,Occupational Therapist
921,concept,Lamborghini,Lazaro Cardenas,jcb,1.60,Mexico,17.9567646,-102.1943485,Assistant Professor
922,approach,Honda,Saint-Jérôme,jcb,4.8.1,Canada,45.7738831,-73.9771044,Programmer I
923,Sharable,Pontiac,Luleå,jcb,9.4.4,Sweden,65.5921449,22.168271,Safety Technician III
924,empowering,Pontiac,Tirmiz,mastercard,0.2.1,Uzbekistan,37.2610694,67.3086236,Geologist III
925,conglomeration,Volkswagen,Az̧ Z̧alī‘ah,jcb,8.0.1,Yemen,15.01667,48.01667,Librarian
926,Horizontal,Nissan,Juanshui,visa,0.94,China,23.6347,102.826557,Recruiter
927,time-frame,Chevrolet,Tongjing,jcb,0.2.6,China,31.2823103,121.5045889,Structural Analysis Engineer
928,3rd generation,Kia,Suso,jcb,0.6.7,Philippines,17.3595778,120.4571858,Clinical Specialist
929,multimedia,Audi,Krajan,jcb,8.22,Indonesia,-7.5450262,111.6556388,Assistant Professor
930,Function-based,Chevrolet,Kaduela,americanexpress,5.9.4,Indonesia,-6.7917815,108.4187029,Administrative Assistant II
931,bifurcated,Volkswagen,Socorro,jcb,8.4.0,Colombia,6.4360112,-73.28833,Quality Control Specialist
932,Multi-tiered,Volkswagen,Xiaogang,diners-club-international,0.67,China,31.070643,113.943274,Administrative Officer
933,uniform,GMC,Shimen,maestro,5.44,China,29.584292,111.380014,Assistant Professor
934,system engine,Chevrolet,Dayuan,visa-electron,0.2.7,China,23.2654395,113.3547602,Office Assistant III
935,Organized,Cadillac,Verkhn’odniprovs’k,jcb,2.62,Ukraine,48.6482135,34.336891,Environmental Specialist
936,Focused,Chevrolet,Jinhai,jcb,5.4,China,31.263042,121.638572,Help Desk Operator
937,budgetary management,Saturn,Aioi,diners-club-carte-blanche,4.6.5,Japan,38.1265094,140.2770274,General Manager
938,Triple-buffered,Acura,Stockholm,visa,1.4,Sweden,47.0173733,-68.1430343,Media Manager II
939,attitude,Ford,Idkū,jcb,6.8.0,Egypt,31.3052222,30.2992358,Associate Professor
940,zero tolerance,Dodge,Xinzhu,switch,5.5,China,24.8138287,120.9674798,GIS Technical Architect
941,Programmable,Infiniti,Ermelo,jcb,7.07,South Africa,-26.4051075,30.447285,Mechanical Systems Engineer
942,throughput,Mitsubishi,Montélimar,maestro,5.20,France,44.5590244,4.7447501,Engineer III
943,Enterprise-wide,Mazda,Jeponkrajan,jcb,0.2.0,Indonesia,-7.459928,110.2727569,Desktop Support Technician
944,Ergonomic,Audi,Richmond,americanexpress,3.06,United States,37.93,-122.38,Web Designer IV
945,Visionary,Ford,Hongshan,jcb,0.9.3,China,22.517585,113.39277,Nuclear Power Engineer
946,non-volatile,Chevrolet,Ciakar,bankcard,4.9,Indonesia,-6.2651072,106.5318919,Business Systems Development Analyst
947,responsive,BMW,Froly,maestro,3.5.3,Russia,57.8374522,56.2706202,Help Desk Operator
948,high-level,Pontiac,Krajan Satu,diners-club-enroute,0.2.5,Indonesia,-7.3743397,110.2648159,Administrative Officer
949,Grass-roots,Chevrolet,Yubilyeyny,jcb,0.27,Belarus,53.8191,27.5215,Business Systems Development Analyst
950,6th generation,Honda,Pompano Beach,jcb,7.8.5,United States,26.2778269,-80.109357,Pharmacist
951,Adaptive,Ford,Fornos,switch,9.4,Portugal,41.0562367,-8.2439651,Chemical Engineer
952,Inverse,Audi,Baima,jcb,7.6.1,China,29.528923,104.990101,Sales Representative
953,Focused,Scion,Dairiti,jcb,6.15,Indonesia,-10.539,121.8525,Sales Associate
954,Polarised,Oldsmobile,Ḩawsh ‘Īsá,switch,4.69,Egypt,30.9128,30.29018,Design Engineer
955,Graphic Interface,Jeep,Ngasinan,jcb,0.33,Indonesia,-7.9620331,111.4723041,Payment Adjustment Coordinator
956,reciprocal,Kia,Dyurtyuli,jcb,1.74,Russia,55.4787765,54.8619269,Developer I
957,service-desk,Mitsubishi,Fatukanutu,diners-club-enroute,9.3,Indonesia,-10.1749074,123.9136675,Technical Writer
958,reciprocal,Pontiac,Nagarakembang,bankcard,0.1.0,Indonesia,-7.0453161,108.3311815,Registered Nurse
959,Switchable,Dodge,Muslyumovo,laser,2.01,Russia,55.3029762,53.1960521,Systems Administrator II
960,Reactive,Lexus,Porto de Mós,diners-club-enroute,4.45,Portugal,39.6022749,-8.8165669,Compensation Analyst
961,intermediate,Mercury,Kingsey Falls,jcb,7.4.4,Canada,45.85007,-72.0658,Engineer III
962,Fully-configurable,Kia,Banjar Batuaji Kaja,visa-electron,7.0,Indonesia,-8.6186415,115.1831787,Recruiter
963,workforce,Chevrolet,Calape,jcb,0.3.9,Philippines,9.8411782,123.9121342,Structural Engineer
964,parallelism,BMW,Rungis,jcb,2.9.7,France,48.7700185,2.3508225,Operator
965,solution,Infiniti,Yara,americanexpress,0.8.4,Cuba,20.2712406,-76.9556643,Automation Specialist II
966,Adaptive,Ford,Magoúla,jcb,0.99,Greece,38.0790354,23.5215964,Tax Accountant
967,matrices,Mitsubishi,Ginatilan,bankcard,0.15,Philippines,9.5700231,123.312382,Research Associate
968,definition,Chevrolet,Bendo,jcb,0.9.6,Indonesia,-7.6492089,111.4395128,Engineer III
969,Networked,Toyota,Lapuz,jcb,3.3,Philippines,14.7075271,121.0259556,Data Coordiator
970,Persistent,Subaru,Dallas,diners-club-carte-blanche,8.2.8,United States,32.7030883,-96.8029489,Structural Engineer
971,disintermediate,Kia,Tanxi,jcb,0.3.4,China,29.696108,118.315329,Assistant Professor
972,stable,Toyota,Marsh Harbour,jcb,1.1,Bahamas,26.5241653,-77.0909809,Computer Systems Analyst IV
973,concept,Cadillac,Khorosheve,jcb,9.2.1,Ukraine,49.854824,36.2090012,Desktop Support Technician
974,Distributed,Mazda,San Vicente,bankcard,7.6.9,Philippines,14.7596318,121.0589081,Tax Accountant
975,Organic,Ford,Dem’yanovo,mastercard,5.8,Russia,60.3009074,47.0835378,Electrical Engineer
976,Multi-tiered,Alfa Romeo,Huanglian,americanexpress,3.50,China,42.0595836,123.4808607,Marketing Assistant
977,object-oriented,Ford,Sexmoan,mastercard,0.7.9,Philippines,14.9333333,120.6166667,Office Assistant IV
978,contextually-based,Suzuki,Liuqu,jcb,2.04,China,25.843691,98.854532,Editor
979,methodical,Mazda,Xuwei,jcb,4.2.8,China,33.4881678,118.2110105,Legal Assistant
980,Face to face,Nissan,Dengteke,visa-electron,6.0,China,48.6429165,124.5597559,Product Engineer
981,Streamlined,Mercury,Waekolong,jcb,4.16,Indonesia,-8.7581,120.7293,Help Desk Technician
982,matrices,Mazda,Malanday,bankcard,1.9,Philippines,14.648875,121.095063,Budget/Accounting Analyst IV
983,Down-sized,Chevrolet,Nouaseur,jcb,0.3.1,Morocco,33.3527276,-7.5788975,Dental Hygienist
984,knowledge user,Chevrolet,Lemenhe,visa-electron,9.7.6,Portugal,41.4530119,-8.5322628,Project Manager
985,secondary,Saab,Voloka,jcb,5.7.5,Ukraine,48.1944728,25.9320036,Help Desk Operator
986,background,Lexus,Le Havre,jcb,4.2,France,49.48153,0.108211,Assistant Manager
987,Upgradable,Volkswagen,Meijiang,jcb,5.9.3,China,24.31049,116.116695,Budget/Accounting Analyst III
988,leading edge,Ford,Pathum Rat,jcb,1.2.5,Thailand,15.6338588,103.3421371,Budget/Accounting Analyst IV
989,Innovative,Nissan,Tangtuzhui,diners-club-enroute,6.31,China,21.470022,110.541691,Engineer II
990,support,GMC,Mahendranagar,jcb,5.7,Nepal,28.9872803,80.1651854,Staff Accountant III
991,Future-proofed,Suzuki,Rubio,jcb,0.9.4,Venezuela,7.6988579,-72.3607108,Human Resources Assistant III
992,24 hour,Volkswagen,Mantang,jcb,9.6.0,Philippines,11.8711517,125.4280007,Human Resources Manager
993,access,Pontiac,Neẖalim,jcb,3.51,Israel,32.058597,34.9136,Statistician III
994,Streamlined,Chevrolet,Santa Cruz,jcb,5.97,Philippines,13.0748879,120.7213113,Junior Executive
995,reciprocal,Mercury,Boyu,jcb,0.8.4,China,31.5909061,120.4927974,Structural Engineer
996,upward-trending,Audi,Karasuk,jcb,2.3,Russia,53.7253057,78.0495272,Health Coach III
997,modular,Ford,Gardanne,bankcard,4.7,France,43.553302,6.574529,Tax Accountant
998,national,Volvo,Plumbangan,jcb,2.95,Indonesia,-8.0614295,112.3546395,Librarian
999,tangible,Acura,Cibuah,mastercard,8.8.7,Indonesia,-6.3384977,106.1610343,Clinical Specialist
1000,client-driven,Nissan,Lok,americanexpress,5.7.6,Serbia,45.2303117,20.2078344,Sales Associate
